NN1,NN2,FULL,StreetAddress,City,State,ZipCode,Country,Tel,InRefTo,Notes,Rate1,Rate2,Rate3,Rate4,Rate5,Rate6,Rate7,Rate8,Rate9,Rate10,Rate11,Rate12,Rate13,Rate14,Rate15,Rate16,Rate17,Rate18,Rate19,Rate20,customDate,customHours,countyList,customMoney,customPop,customPercent,govText,customTimekeeper,Street2,City2,State2,Zip2,Country2
Beverly,01915,City of Beverly,1668 Beverly Road,Beverly,MA,01915,US,617-668 1668,County of Essex,Established in 1668,215.01,215.02,215.03,215.04,215.05,215.06,215.07,215.08,215.09,215.1,215.11,215.12,215.13,215.14,215.15,215.16,215.17,215.18,215.19,215.2,8/3/2013,2.15,Essex,1214.001,"39,502",21.51,Mayor-council,JamesR,PO #1668,Ylreveb,MA,MA-01915,usa
Pelham,01002,Town of Pelham,1743 Pelham Road,Pelham,MA,01002,US,617-743 1743,County of Hampshire,Established in 1743,2.01,2.02,2.03,2.04,2.05,2.06,2.07,2.08,2.09,2.1,2.11,2.12,2.13,2.14,2.15,2.16,2.17,2.18,2.19,2.2,1/2/2013,0.02,Hampshire,1001.001,"1,321",0.21,Open town meeting,CoreyM,PO #1743,Mahlep,MA,MA-01002,usa
Amherst,01003,Town of Amherst,1775 Amherst Road,Amherst,MA,01003,US,617-775 1775,County of Hampshire,Established in 1775,3.01,3.02,3.03,3.04,3.05,3.06,3.07,3.08,3.09,3.1,3.11,3.12,3.13,3.14,3.15,3.16,3.17,3.18,3.19,3.2,1/3/2013,0.03,Hampshire,1002.001,"37,819",0.31,Representative town meeting,SamS,PO #1775,Tsrehma,MA,MA-01003,usa
Barre,01005,Town of Barre,1774 Barre Road,Barre,MA,01005,US,617-774 1774,County of Worcester,Established in 1774,4.01,4.02,4.03,4.04,4.05,4.06,4.07,4.08,4.09,4.1,4.11,4.12,4.13,4.14,4.15,4.16,4.17,4.18,4.19,4.2,1/4/2013,0.04,Worcester,1003.001,"5,398",0.41,Open town meeting,ShawnR,PO #1774,Errab,MA,MA-01005,usa
Belchertown,01007,Town of Belchertown,1761 Belchertown Road,Belchertown,MA,01007,US,617-761 1761,County of Hampshire,Established in 1761,5.01,5.02,5.03,5.04,5.05,5.06,5.07,5.08,5.09,5.1,5.11,5.12,5.13,5.14,5.15,5.16,5.17,5.18,5.19,5.2,1/5/2013,0.05,Hampshire,1004.001,"14,649",0.51,Open town meeting,JamesR,PO #1761,Nwotrehcleb,MA,MA-01007,usa
Blandford,01008,Town of Blandford,1741 Blandford Road,Blandford,MA,01008,US,617-741 1741,County of Hampden,Established in 1741,6.01,6.02,6.03,6.04,6.05,6.06,6.07,6.08,6.09,6.1,6.11,6.12,6.13,6.14,6.15,6.16,6.17,6.18,6.19,6.2,1/6/2013,0.06,Hampden,1005.001,"1,233",0.61,Open town meeting,TomH,PO #1741,Drofdnalb,MA,MA-01008,usa
Brimfield,01010,Town of Brimfield,1731 Brimfield Road,Brimfield,MA,01010,US,617-731 1731,County of Hampden,Established in 1731,7.01,7.02,7.03,7.04,7.05,7.06,7.07,7.08,7.09,7.1,7.11,7.12,7.13,7.14,7.15,7.16,7.17,7.18,7.19,7.2,1/7/2013,0.07,Hampden,1006.001,"3,609",0.71,Open town meeting,CoreyM,PO #1731,Dleifmirb,MA,MA-01010,usa
Chester,01011,Town of Chester,1765 Chester Road,Chester,MA,01011,US,617-765 1765,County of Hampden,Established in 1765,8.01,8.02,8.03,8.04,8.05,8.06,8.07,8.08,8.09,8.1,8.11,8.12,8.13,8.14,8.15,8.16,8.17,8.18,8.19,8.2,1/8/2013,0.08,Hampden,1007.001,"1,337",0.81,Open town meeting,SamS,PO #1765,Retsehc,MA,MA-01011,usa
Chesterfield,01012,Town of Chesterfield,1762 Chesterfield Road,Chesterfield,MA,01012,US,617-762 1762,County of Hampshire,Established in 1762,9.01,9.02,9.03,9.04,9.05,9.06,9.07,9.08,9.09,9.1,9.11,9.12,9.13,9.14,9.15,9.16,9.17,9.18,9.19,9.2,1/9/2013,0.09,Hampshire,1008.001,"1,222",0.91,Open town meeting,ShawnR,PO #1762,Dleifretsehc,MA,MA-01012,usa
Chicopee,01013,City of Chicopee,1848 Chicopee Road,Chicopee,MA,01013,US,617-848 1848,County of Hampden,Established in 1848,10.01,10.02,10.03,10.04,10.05,10.06,10.07,10.08,10.09,10.1,10.11,10.12,10.13,10.14,10.15,10.16,10.17,10.18,10.19,10.2,1/10/2013,0.1,Hampden,1009.001,"55,298",1.01,Mayor-aldermen,JamesR,PO #1848,Eepocihc,MA,MA-01013,usa
Cummington,01026,Town of Cummington,1779 Cummington Road,Cummington,MA,01026,US,617-779 1779,County of Hampshire,Established in 1779,11.01,11.02,11.03,11.04,11.05,11.06,11.07,11.08,11.09,11.1,11.11,11.12,11.13,11.14,11.15,11.16,11.17,11.18,11.19,11.2,1/11/2013,0.11,Hampshire,1010.001,872,1.11,Open town meeting,TomH,PO #1779,Notgnimmuc,MA,MA-01026,usa
Easthampton,01027,City of Easthampton,1809 Easthampton Road,Easthampton,MA,01027,US,617-809 1809,County of Hampshire,Established in 1809,12.01,12.02,12.03,12.04,12.05,12.06,12.07,12.08,12.09,12.1,12.11,12.12,12.13,12.14,12.15,12.16,12.17,12.18,12.19,12.2,1/12/2013,0.12,Hampshire,1011.001,"16,053",1.21,Mayor-council,CoreyM,PO #1809,Notpmahtsae,MA,MA-01027,usa
Westhampton,01027x,Town of Westhampton,1778 Westhampton Road,Westhampton,MA,01027x,US,617-778 1778,County of Hampshire,Established in 1778,13.01,13.02,13.03,13.04,13.05,13.06,13.07,13.08,13.09,13.1,13.11,13.12,13.13,13.14,13.15,13.16,13.17,13.18,13.19,13.2,1/13/2013,0.13,Hampshire,1012.001,"1,607",1.31,Open town meeting,SamS,PO #1778,Notpmahtsew,MA,MA-01027x,usa
East.Longmeadow,01028,Town of East Longmeadow,1894 East Longmeadow Road,East Longmeadow,MA,01028,US,617-894 1894,County of Hampden,Established in 1894,14.01,14.02,14.03,14.04,14.05,14.06,14.07,14.08,14.09,14.1,14.11,14.12,14.13,14.14,14.15,14.16,14.17,14.18,14.19,14.2,1/14/2013,0.14,Hampden,1013.001,"15,720",1.41,Open town meeting,ShawnR,PO #1894,Wodaemgnol Tsae,MA,MA-01028,usa
Goshen,01032,Town of Goshen,1781 Goshen Road,Goshen,MA,01032,US,617-781 1781,County of Hampshire,Established in 1781,15.01,15.02,15.03,15.04,15.05,15.06,15.07,15.08,15.09,15.1,15.11,15.12,15.13,15.14,15.15,15.16,15.17,15.18,15.19,15.2,1/15/2013,0.15,Hampshire,1014.001,"1,054",1.51,Open town meeting,JamesR,PO #1781,Nehsog,MA,MA-01032,usa
Granby,01033,Town of Granby,1768 Granby Road,Granby,MA,01033,US,617-768 1768,County of Hampshire,Established in 1768,16.01,16.02,16.03,16.04,16.05,16.06,16.07,16.08,16.09,16.1,16.11,16.12,16.13,16.14,16.15,16.16,16.17,16.18,16.19,16.2,1/16/2013,0.16,Hampshire,1015.001,"6,240",1.61,Open town meeting,TomH,PO #1768,Ybnarg,MA,MA-01033,usa
Granville,01034,Town of Granville,1775 Granville Road,Granville,MA,01034,US,617-775 1775,County of Hampden,Established in 1775,17.01,17.02,17.03,17.04,17.05,17.06,17.07,17.08,17.09,17.1,17.11,17.12,17.13,17.14,17.15,17.16,17.17,17.18,17.19,17.2,1/17/2013,0.17,Hampden,1016.001,"1,566",1.71,Open town meeting,CoreyM,PO #1775,Ellivnarg,MA,MA-01034,usa
Hadley,01035,Town of Hadley,1661 Hadley Road,Hadley,MA,01035,US,617-661 1661,County of Hampshire,Established in 1661,18.01,18.02,18.03,18.04,18.05,18.06,18.07,18.08,18.09,18.1,18.11,18.12,18.13,18.14,18.15,18.16,18.17,18.18,18.19,18.2,1/18/2013,0.18,Hampshire,1017.001,"5,250",1.81,Open town meeting,SamS,PO #1661,Yeldah,MA,MA-01035,usa
Hampden,01036,Town of Hampden,1878 Hampden Road,Hampden,MA,01036,US,617-878 1878,County of Hampden,Established in 1878,19.01,19.02,19.03,19.04,19.05,19.06,19.07,19.08,19.09,19.1,19.11,19.12,19.13,19.14,19.15,19.16,19.17,19.18,19.19,19.2,1/19/2013,0.19,Hampden,1018.001,"5,139",1.91,Open town meeting,ShawnR,PO #1878,Nedpmah,MA,MA-01036,usa
Hardwick,01037,Town of Hardwick,1739 Hardwick Road,Hardwick,MA,01037,US,617-739 1739,County of Worcester,Established in 1739,20.01,20.02,20.03,20.04,20.05,20.06,20.07,20.08,20.09,20.1,20.11,20.12,20.13,20.14,20.15,20.16,20.17,20.18,20.19,20.2,1/20/2013,0.2,Worcester,1019.001,"2,990",2.01,Open town meeting,JamesR,PO #1739,Kciwdrah,MA,MA-01037,usa
Hatfield,01038,Town of Hatfield,1670 Hatfield Road,Hatfield,MA,01038,US,617-670 1670,County of Hampshire,Established in 1670,21.01,21.02,21.03,21.04,21.05,21.06,21.07,21.08,21.09,21.1,21.11,21.12,21.13,21.14,21.15,21.16,21.17,21.18,21.19,21.2,1/21/2013,0.21,Hampshire,1020.001,"3,279",2.11,Open town meeting,TomH,PO #1670,Dleiftah,MA,MA-01038,usa
Holyoke,01040,City of Holyoke,1850 Holyoke Road,Holyoke,MA,01040,US,617-850 1850,County of Hampden,Established in 1850,22.01,22.02,22.03,22.04,22.05,22.06,22.07,22.08,22.09,22.1,22.11,22.12,22.13,22.14,22.15,22.16,22.17,22.18,22.19,22.2,1/22/2013,0.22,Hampden,1021.001,"39,880",2.21,Mayor-council,CoreyM,PO #1850,Ekoyloh,MA,MA-01040,usa
Huntington,01050,Town of Huntington,1775 Huntington Road,Huntington,MA,01050,US,617-775 1775,County of Hampshire,Established in 1775,23.01,23.02,23.03,23.04,23.05,23.06,23.07,23.08,23.09,23.1,23.11,23.12,23.13,23.14,23.15,23.16,23.17,23.18,23.19,23.2,1/23/2013,0.23,Hampshire,1022.001,"2,180",2.31,Open town meeting,SamS,PO #1775,Notgnitnuh,MA,MA-01050,usa
Leverett,01054,Town of Leverett,1774 Leverett Road,Leverett,MA,01054,US,617-774 1774,County of Franklin,Established in 1774,24.01,24.02,24.03,24.04,24.05,24.06,24.07,24.08,24.09,24.1,24.11,24.12,24.13,24.14,24.15,24.16,24.17,24.18,24.19,24.2,1/24/2013,0.24,Franklin,1023.001,"1,851",2.41,Open town meeting,ShawnR,PO #1774,Tterevel,MA,MA-01054,usa
Ludlow,01056,Town of Ludlow,1775 Ludlow Road,Ludlow,MA,01056,US,617-775 1775,County of Hampden,Established in 1775,25.01,25.02,25.03,25.04,25.05,25.06,25.07,25.08,25.09,25.1,25.11,25.12,25.13,25.14,25.15,25.16,25.17,25.18,25.19,25.2,1/25/2013,0.25,Hampden,1024.001,"21,103",2.51,Representative town meeting,JamesR,PO #1775,Woldul,MA,MA-01056,usa
Monson,01057,Town of Monson,1775 Monson Road,Monson,MA,01057,US,617-775 1775,County of Hampden,Established in 1775,26.01,26.02,26.03,26.04,26.05,26.06,26.07,26.08,26.09,26.1,26.11,26.12,26.13,26.14,26.15,26.16,26.17,26.18,26.19,26.2,1/26/2013,0.26,Hampden,1025.001,"8,560",2.61,Open town meeting,TomH,PO #1775,Nosnom,MA,MA-01057,usa
Northampton,01060,City of Northampton,1656 Northampton Road,Northampton,MA,01060,US,617-656 1656,County of Hampshire,Established in 1656,27.01,27.02,27.03,27.04,27.05,27.06,27.07,27.08,27.09,27.1,27.11,27.12,27.13,27.14,27.15,27.16,27.17,27.18,27.19,27.2,1/27/2013,0.27,Hampshire,1026.001,"28,549",2.71,Mayor-council,CoreyM,PO #1656,Notpmahtron,MA,MA-01060,usa
Oakham,01068,Town of Oakham,1775 Oakham Road,Oakham,MA,01068,US,617-775 1775,County of Worcester,Established in 1775,28.01,28.02,28.03,28.04,28.05,28.06,28.07,28.08,28.09,28.1,28.11,28.12,28.13,28.14,28.15,28.16,28.17,28.18,28.19,28.2,1/28/2013,0.28,Worcester,1027.001,"1,902",2.81,Open town meeting,SamS,PO #1775,Mahkao,MA,MA-01068,usa
Palmer,01069,City of Palmer,1775 Palmer Road,Palmer,MA,01069,US,617-775 1775,County of Hampden,Established in 1775,29.01,29.02,29.03,29.04,29.05,29.06,29.07,29.08,29.09,29.1,29.11,29.12,29.13,29.14,29.15,29.16,29.17,29.18,29.19,29.2,1/29/2013,0.29,Hampden,1028.001,"12,140",2.91,Council-manager,ShawnR,PO #1775,Remlap,MA,MA-01069,usa
Plainfield,01070,Town of Plainfield,1807 Plainfield Road,Plainfield,MA,01070,US,617-807 1807,County of Hampshire,Established in 1807,30.01,30.02,30.03,30.04,30.05,30.06,30.07,30.08,30.09,30.1,30.11,30.12,30.13,30.14,30.15,30.16,30.17,30.18,30.19,30.2,1/30/2013,0.3,Hampshire,1029.001,648,3.01,Open town meeting,JamesR,PO #1807,Dleifnialp,MA,MA-01070,usa
Russell,01071,Town of Russell,1792 Russell Road,Russell,MA,01071,US,617-792 1792,County of Hampden,Established in 1792,31.01,31.02,31.03,31.04,31.05,31.06,31.07,31.08,31.09,31.1,31.11,31.12,31.13,31.14,31.15,31.16,31.17,31.18,31.19,31.2,1/31/2013,0.31,Hampden,1030.001,"1,775",3.11,Open town meeting,TomH,PO #1792,Llessur,MA,MA-01071,usa
Shutesbury,01072,Town of Shutesbury,1761 Shutesbury Road,Shutesbury,MA,01072,US,617-761 1761,County of Franklin,Established in 1761,32.01,32.02,32.03,32.04,32.05,32.06,32.07,32.08,32.09,32.1,32.11,32.12,32.13,32.14,32.15,32.16,32.17,32.18,32.19,32.2,2/1/2013,0.32,Franklin,1031.001,"1,771",3.21,Open town meeting,CoreyM,PO #1761,Yrubsetuhs,MA,MA-01072,usa
Southampton,01073,Town of Southampton,1775 Southampton Road,Southampton,MA,01073,US,617-775 1775,County of Hampshire,Established in 1775,33.01,33.02,33.03,33.04,33.05,33.06,33.07,33.08,33.09,33.1,33.11,33.12,33.13,33.14,33.15,33.16,33.17,33.18,33.19,33.2,2/2/2013,0.33,Hampshire,1032.001,"5,792",3.31,Open town meeting,SamS,PO #1775,Notpmahtuos,MA,MA-01073,usa
South.Hadley,01075,Town of South Hadley,1775 South Hadley Road,South Hadley,MA,01075,US,617-775 1775,County of Hampshire,Established in 1775,34.01,34.02,34.03,34.04,34.05,34.06,34.07,34.08,34.09,34.1,34.11,34.12,34.13,34.14,34.15,34.16,34.17,34.18,34.19,34.2,2/3/2013,0.34,Hampshire,1033.001,"17,514",3.41,Representative town meeting,ShawnR,PO #1775,Yeldah Htuos,MA,MA-01075,usa
Southwick,01077,Town of Southwick,1775 Southwick Road,Southwick,MA,01077,US,617-775 1775,County of Hampden,Established in 1775,35.01,35.02,35.03,35.04,35.05,35.06,35.07,35.08,35.09,35.1,35.11,35.12,35.13,35.14,35.15,35.16,35.17,35.18,35.19,35.2,2/4/2013,0.35,Hampden,1034.001,"9,502",3.51,Open town meeting,JamesR,PO #1775,Kciwhtuos,MA,MA-01077,usa
Wales,01081,Town of Wales,1775 Wales Road,Wales,MA,01081,US,617-775 1775,County of Hampden,Established in 1775,36.01,36.02,36.03,36.04,36.05,36.06,36.07,36.08,36.09,36.1,36.11,36.12,36.13,36.14,36.15,36.16,36.17,36.18,36.19,36.2,2/5/2013,0.36,Hampden,1035.001,"1,838",3.61,Open town meeting,TomH,PO #1775,Selaw,MA,MA-01081,usa
Ware,01082,Town of Ware,1775 Ware Road,Ware,MA,01082,US,617-775 1775,County of Hampshire,Established in 1775,37.01,37.02,37.03,37.04,37.05,37.06,37.07,37.08,37.09,37.1,37.11,37.12,37.13,37.14,37.15,37.16,37.17,37.18,37.19,37.2,2/6/2013,0.37,Hampshire,1036.001,"9,872",3.71,Open town meeting,CoreyM,PO #1775,Eraw,MA,MA-01082,usa
Warren,01083,Town of Warren,1742 Warren Road,Warren,MA,01083,US,617-742 1742,County of Worcester,Established in 1742,38.01,38.02,38.03,38.04,38.05,38.06,38.07,38.08,38.09,38.1,38.11,38.12,38.13,38.14,38.15,38.16,38.17,38.18,38.19,38.2,2/7/2013,0.38,Worcester,1037.001,"5,135",3.81,Open town meeting,SamS,PO #1742,Nerraw,MA,MA-01083,usa
Westfield,01085,City of Westfield,1669 Westfield Road,Westfield,MA,01085,US,617-669 1669,County of Hampden,Established in 1669,39.01,39.02,39.03,39.04,39.05,39.06,39.07,39.08,39.09,39.1,39.11,39.12,39.13,39.14,39.15,39.16,39.17,39.18,39.19,39.2,2/8/2013,0.39,Hampden,1038.001,"41,094",3.91,Mayor-council,ShawnR,PO #1669,Dleiftsew,MA,MA-01085,usa
Montgomery,01085x,Town of Montgomery,1780 Montgomery Road,Montgomery,MA,01085x,US,617-780 1780,County of Hampden,Established in 1780,40.01,40.02,40.03,40.04,40.05,40.06,40.07,40.08,40.09,40.1,40.11,40.12,40.13,40.14,40.15,40.16,40.17,40.18,40.19,40.2,2/9/2013,0.4,Hampden,1039.001,838,4.01,Open town meeting,JamesR,PO #1780,Yremogtnom,MA,MA-01085x,usa
West.Springfield,01089,City of West Springfield,1774 West Springfield Road,West Springfield,MA,01089,US,617-774 1774,County of Hampden,Established in 1774,41.01,41.02,41.03,41.04,41.05,41.06,41.07,41.08,41.09,41.1,41.11,41.12,41.13,41.14,41.15,41.16,41.17,41.18,41.19,41.2,2/10/2013,0.41,Hampden,1040.001,"28,391",4.11,Mayor-council,TomH,PO #1774,Dleifgnirps Tsew,MA,MA-01089,usa
Whately,01093,Town of Whately,1771 Whately Road,Whately,MA,01093,US,617-771 1771,County of Franklin,Established in 1771,42.01,42.02,42.03,42.04,42.05,42.06,42.07,42.08,42.09,42.1,42.11,42.12,42.13,42.14,42.15,42.16,42.17,42.18,42.19,42.2,2/11/2013,0.42,Franklin,1041.001,"1,496",4.21,Open town meeting,CoreyM,PO #1771,Yletahw,MA,MA-01093,usa
Wilbraham,01095,Town of Wilbraham,1763 Wilbraham Road,Wilbraham,MA,01095,US,617-763 1763,County of Hampden,Established in 1763,43.01,43.02,43.03,43.04,43.05,43.06,43.07,43.08,43.09,43.1,43.11,43.12,43.13,43.14,43.15,43.16,43.17,43.18,43.19,43.2,2/12/2013,0.43,Hampden,1042.001,"14,219",4.31,Open town meeting,SamS,PO #1763,Maharbliw,MA,MA-01095,usa
Williamsburg,01096,Town of Williamsburg,1775 Williamsburg Road,Williamsburg,MA,01096,US,617-775 1775,County of Hampshire,Established in 1775,44.01,44.02,44.03,44.04,44.05,44.06,44.07,44.08,44.09,44.1,44.11,44.12,44.13,44.14,44.15,44.16,44.17,44.18,44.19,44.2,2/13/2013,0.44,Hampshire,1043.001,"2,482",4.41,Open town meeting,ShawnR,PO #1775,Grubsmailliw,MA,MA-01096,usa
Worthington,01098,Town of Worthington,1768 Worthington Road,Worthington,MA,01098,US,617-768 1768,County of Hampshire,Established in 1768,45.01,45.02,45.03,45.04,45.05,45.06,45.07,45.08,45.09,45.1,45.11,45.12,45.13,45.14,45.15,45.16,45.17,45.18,45.19,45.2,2/14/2013,0.45,Hampshire,1044.001,"1,156",4.51,Open town meeting,JamesR,PO #1768,Notgnihtrow,MA,MA-01098,usa
Springfield,01101,City of Springfield,1636 Springfield Road,Springfield,MA,01101,US,617-636 1636,County of Hampden,Established in 1636,46.01,46.02,46.03,46.04,46.05,46.06,46.07,46.08,46.09,46.1,46.11,46.12,46.13,46.14,46.15,46.16,46.17,46.18,46.19,46.2,2/15/2013,0.46,Hampden,1045.001,"153,060",4.61,Mayor-council,TomH,PO #1636,Dleifgnirps,MA,MA-01101,usa
Longmeadow,01106,Town of Longmeadow,1783 Longmeadow Road,Longmeadow,MA,01106,US,617-783 1783,County of Hampden,Established in 1783,47.01,47.02,47.03,47.04,47.05,47.06,47.07,47.08,47.09,47.1,47.11,47.12,47.13,47.14,47.15,47.16,47.17,47.18,47.19,47.2,2/16/2013,0.47,Hampden,1046.001,"15,784",4.71,Open town meeting,CoreyM,PO #1783,Wodaemgnol,MA,MA-01106,usa
Pittsfield,01201,City of Pittsfield,1761 Pittsfield Road,Pittsfield,MA,01201,US,617-761 1761,County of Berkshire,Established in 1761,48.01,48.02,48.03,48.04,48.05,48.06,48.07,48.08,48.09,48.1,48.11,48.12,48.13,48.14,48.15,48.16,48.17,48.18,48.19,48.2,2/17/2013,0.48,Berkshire,1047.001,"44,737",4.81,Mayor-council,SamS,PO #1761,Dleifsttip,MA,MA-01201,usa
Adams,01220,Town of Adams,1778 Adams Road,Adams,MA,01220,US,617-778 1778,County of Berkshire,Established in 1778,49.01,49.02,49.03,49.04,49.05,49.06,49.07,49.08,49.09,49.1,49.11,49.12,49.13,49.14,49.15,49.16,49.17,49.18,49.19,49.2,2/18/2013,0.49,Berkshire,1048.001,"8,485",4.91,Representative town meeting,ShawnR,PO #1778,Smada,MA,MA-01220,usa
Becket,01223,Town of Becket,1765 Becket Road,Becket,MA,01223,US,617-765 1765,County of Berkshire,Established in 1765,50.01,50.02,50.03,50.04,50.05,50.06,50.07,50.08,50.09,50.1,50.11,50.12,50.13,50.14,50.15,50.16,50.17,50.18,50.19,50.2,2/19/2013,0.5,Berkshire,1049.001,"1,779",5.01,Open town meeting,JamesR,PO #1765,Tekceb,MA,MA-01223,usa
Washington,01223x,Town of Washington,1777 Washington Road,Washington,MA,01223x,US,617-777 1777,County of Berkshire,Established in 1777,51.01,51.02,51.03,51.04,51.05,51.06,51.07,51.08,51.09,51.1,51.11,51.12,51.13,51.14,51.15,51.16,51.17,51.18,51.19,51.2,2/20/2013,0.51,Berkshire,1050.001,538,5.11,Open town meeting,TomH,PO #1777,Notgnihsaw,MA,MA-01223x,usa
Cheshire,01225,Town of Cheshire,1793 Cheshire Road,Cheshire,MA,01225,US,617-793 1793,County of Berkshire,Established in 1793,52.01,52.02,52.03,52.04,52.05,52.06,52.07,52.08,52.09,52.1,52.11,52.12,52.13,52.14,52.15,52.16,52.17,52.18,52.19,52.2,2/21/2013,0.52,Berkshire,1051.001,"3,235",5.21,Open town meeting,CoreyM,PO #1793,Erihsehc,MA,MA-01225,usa
Dalton,01226,Town of Dalton,1784 Dalton Road,Dalton,MA,01226,US,617-784 1784,County of Berkshire,Established in 1784,53.01,53.02,53.03,53.04,53.05,53.06,53.07,53.08,53.09,53.1,53.11,53.12,53.13,53.14,53.15,53.16,53.17,53.18,53.19,53.2,2/22/2013,0.53,Berkshire,1052.001,"6,756",5.31,Open town meeting,SamS,PO #1784,Notlad,MA,MA-01226,usa
Great Barrington,01230,Town of Great Barrington,1761 Great Barrington Road,Great Barrington,MA,01230,US,617-761 1761,County of Berkshire,Established in 1761,54.01,54.02,54.03,54.04,54.05,54.06,54.07,54.08,54.09,54.1,54.11,54.12,54.13,54.14,54.15,54.16,54.17,54.18,54.19,54.2,2/23/2013,0.54,Berkshire,1053.001,"7,104",5.41,Open town meeting,ShawnR,PO #1761,Notgnirrab Taerg,MA,MA-01230,usa
Alford,01230x,Town of Alford,1773 Alford Road,Alford,MA,01230x,US,617-773 1773,County of Berkshire,Established in 1773,55.01,55.02,55.03,55.04,55.05,55.06,55.07,55.08,55.09,55.1,55.11,55.12,55.13,55.14,55.15,55.16,55.17,55.18,55.19,55.2,2/24/2013,0.55,Berkshire,1054.001,494,5.51,Open town meeting,JamesR,PO #1773,Drofla,MA,MA-01230x,usa
Hinsdale,01235,Town of Hinsdale,1804 Hinsdale Road,Hinsdale,MA,01235,US,617-804 1804,County of Berkshire,Established in 1804,56.01,56.02,56.03,56.04,56.05,56.06,56.07,56.08,56.09,56.1,56.11,56.12,56.13,56.14,56.15,56.16,56.17,56.18,56.19,56.2,2/25/2013,0.56,Berkshire,1055.001,"2,032",5.61,Open town meeting,TomH,PO #1804,Eladsnih,MA,MA-01235,usa
Peru,01235x,Town of Peru,1771 Peru Road,Peru,MA,01235x,US,617-771 1771,County of Berkshire,Established in 1771,57.01,57.02,57.03,57.04,57.05,57.06,57.07,57.08,57.09,57.1,57.11,57.12,57.13,57.14,57.15,57.16,57.17,57.18,57.19,57.2,2/26/2013,0.57,Berkshire,1056.001,847,5.71,Open town meeting,CoreyM,PO #1771,Urep,MA,MA-01235x,usa
Hancock,01237,Town of Hancock,1776 Hancock Road,Hancock,MA,01237,US,617-776 1776,County of Berkshire,Established in 1776,58.01,58.02,58.03,58.04,58.05,58.06,58.07,58.08,58.09,58.1,58.11,58.12,58.13,58.14,58.15,58.16,58.17,58.18,58.19,58.2,2/27/2013,0.58,Berkshire,1057.001,717,5.81,Open town meeting,SamS,PO #1776,Kcocnah,MA,MA-01237,usa
Lanesborough,01237x,Town of Lanesborough,1765 Lanesborough Road,Lanesborough,MA,01237x,US,617-765 1765,County of Berkshire,Established in 1765,59.01,59.02,59.03,59.04,59.05,59.06,59.07,59.08,59.09,59.1,59.11,59.12,59.13,59.14,59.15,59.16,59.17,59.18,59.19,59.2,2/28/2013,0.59,Berkshire,1058.001,"3,091",5.91,Open town meeting,ShawnR,PO #1765,Hguorobsenal,MA,MA-01237x,usa
New Ashford,01237z,Town of New Ashford,1835 New Ashford Road,New Ashford,MA,01237z,US,617-835 1835,County of Berkshire,Established in 1835,60.01,60.02,60.03,60.04,60.05,60.06,60.07,60.08,60.09,60.1,60.11,60.12,60.13,60.14,60.15,60.16,60.17,60.18,60.19,60.2,3/1/2013,0.6,Berkshire,1059.001,228,6.01,Open town meeting,JamesR,PO #1835,Drofhsa Wen,MA,MA-01237z,usa
Lee,01238,Town of Lee,1777 Lee Road,Lee,MA,01238,US,617-777 1777,County of Berkshire,Established in 1777,61.01,61.02,61.03,61.04,61.05,61.06,61.07,61.08,61.09,61.1,61.11,61.12,61.13,61.14,61.15,61.16,61.17,61.18,61.19,61.2,3/2/2013,0.61,Berkshire,1060.001,"5,943",6.11,Representative town meeting,TomH,PO #1777,Eel,MA,MA-01238,usa
Lenox,01240,Town of Lenox,1775 Lenox Road,Lenox,MA,01240,US,617-775 1775,County of Berkshire,Established in 1775,62.01,62.02,62.03,62.04,62.05,62.06,62.07,62.08,62.09,62.1,62.11,62.12,62.13,62.14,62.15,62.16,62.17,62.18,62.19,62.2,3/3/2013,0.62,Berkshire,1061.001,"5,025",6.21,Open town meeting,CoreyM,PO #1775,Xonel,MA,MA-01240,usa
Middlefield,01243,Town of Middlefield,1783 Middlefield Road,Middlefield,MA,01243,US,617-783 1783,County of Hampshire,Established in 1783,63.01,63.02,63.03,63.04,63.05,63.06,63.07,63.08,63.09,63.1,63.11,63.12,63.13,63.14,63.15,63.16,63.17,63.18,63.19,63.2,3/4/2013,0.63,Hampshire,1062.001,521,6.31,Open town meeting,SamS,PO #1783,Dleifelddim,MA,MA-01243,usa
New Marlborough,01244,Town of New Marlborough,1775 New Marlborough Road,New Marlborough,MA,01244,US,617-775 1775,County of Berkshire,Established in 1775,64.01,64.02,64.03,64.04,64.05,64.06,64.07,64.08,64.09,64.1,64.11,64.12,64.13,64.14,64.15,64.16,64.17,64.18,64.19,64.2,3/5/2013,0.64,Berkshire,1063.001,"1,509",6.41,Open town meeting,ShawnR,PO #1775,Hguoroblram Wen,MA,MA-01244,usa
Monterey,01245,Town of Monterey,1847 Monterey Road,Monterey,MA,01245,US,617-847 1847,County of Berkshire,Established in 1847,65.01,65.02,65.03,65.04,65.05,65.06,65.07,65.08,65.09,65.1,65.11,65.12,65.13,65.14,65.15,65.16,65.17,65.18,65.19,65.2,3/6/2013,0.65,Berkshire,1064.001,961,6.51,Open town meeting,JamesR,PO #1847,Yeretnom,MA,MA-01245,usa
North.Adams,01247,City of North Adams,1878 North Adams Road,North Adams,MA,01247,US,617-878 1878,County of Berkshire,Established in 1878,66.01,66.02,66.03,66.04,66.05,66.06,66.07,66.08,66.09,66.1,66.11,66.12,66.13,66.14,66.15,66.16,66.17,66.18,66.19,66.2,3/7/2013,0.66,Berkshire,1065.001,"13,708",6.61,Mayor-council,TomH,PO #1878,Smada Htron,MA,MA-01247,usa
Clarksburg,01247x,Town of Clarksburg,1798 Clarksburg Road,Clarksburg,MA,01247x,US,617-798 1798,County of Berkshire,Established in 1798,67.01,67.02,67.03,67.04,67.05,67.06,67.07,67.08,67.09,67.1,67.11,67.12,67.13,67.14,67.15,67.16,67.17,67.18,67.19,67.2,3/8/2013,0.67,Berkshire,1066.001,"1,702",6.71,Open town meeting,CoreyM,PO #1798,Grubskralc,MA,MA-01247x,usa
Florida,01247z,Town of Florida,1805 Florida Road,Florida,MA,01247z,US,617-805 1805,County of Berkshire,Established in 1805,68.01,68.02,68.03,68.04,68.05,68.06,68.07,68.08,68.09,68.1,68.11,68.12,68.13,68.14,68.15,68.16,68.17,68.18,68.19,68.2,3/9/2013,0.68,Berkshire,1067.001,752,6.81,Open town meeting,SamS,PO #1805,Adirolf,MA,MA-01247z,usa
Otis,01253,Town of Otis,1773 Otis Road,Otis,MA,01253,US,617-773 1773,County of Berkshire,Established in 1773,69.01,69.02,69.03,69.04,69.05,69.06,69.07,69.08,69.09,69.1,69.11,69.12,69.13,69.14,69.15,69.16,69.17,69.18,69.19,69.2,3/10/2013,0.69,Berkshire,1068.001,"1,612",6.91,Open town meeting,ShawnR,PO #1773,Sito,MA,MA-01253,usa
Richmond,01254,Town of Richmond,1765 Richmond Road,Richmond,MA,01254,US,617-765 1765,County of Berkshire,Established in 1765,70.01,70.02,70.03,70.04,70.05,70.06,70.07,70.08,70.09,70.1,70.11,70.12,70.13,70.14,70.15,70.16,70.17,70.18,70.19,70.2,3/11/2013,0.7,Berkshire,1069.001,"1,475",7.01,Open town meeting,JamesR,PO #1765,Dnomhcir,MA,MA-01254,usa
Sandisfield,01255,Town of Sandisfield,1762 Sandisfield Road,Sandisfield,MA,01255,US,617-762 1762,County of Berkshire,Established in 1762,71.01,71.02,71.03,71.04,71.05,71.06,71.07,71.08,71.09,71.1,71.11,71.12,71.13,71.14,71.15,71.16,71.17,71.18,71.19,71.2,3/12/2013,0.71,Berkshire,1070.001,915,7.11,Open town meeting,TomH,PO #1762,Dleifsidnas,MA,MA-01255,usa
Savoy,01256,Town of Savoy,1797 Savoy Road,Savoy,MA,01256,US,617-797 1797,County of Berkshire,Established in 1797,72.01,72.02,72.03,72.04,72.05,72.06,72.07,72.08,72.09,72.1,72.11,72.12,72.13,72.14,72.15,72.16,72.17,72.18,72.19,72.2,3/13/2013,0.72,Berkshire,1071.001,692,7.21,Open town meeting,CoreyM,PO #1797,Yovas,MA,MA-01256,usa
Sheffield,01257,Town of Sheffield,1733 Sheffield Road,Sheffield,MA,01257,US,617-733 1733,County of Berkshire,Established in 1733,73.01,73.02,73.03,73.04,73.05,73.06,73.07,73.08,73.09,73.1,73.11,73.12,73.13,73.14,73.15,73.16,73.17,73.18,73.19,73.2,3/14/2013,0.73,Berkshire,1072.001,"3,257",7.31,Open town meeting,SamS,PO #1733,Dleiffehs,MA,MA-01257,usa
Mount Washington,01258,Town of Mount Washington,1779 Mount Washington Road,Mount Washington,MA,01258,US,617-779 1779,County of Berkshire,Established in 1779,74.01,74.02,74.03,74.04,74.05,74.06,74.07,74.08,74.09,74.1,74.11,74.12,74.13,74.14,74.15,74.16,74.17,74.18,74.19,74.2,3/15/2013,0.74,Berkshire,1073.001,167,7.41,Open town meeting,ShawnR,PO #1779,Notgnihsaw Tnuom,MA,MA-01258,usa
Egremont,01258x,Town of Egremont,1775 Egremont Road,Egremont,MA,01258x,US,617-775 1775,County of Berkshire,Established in 1775,75.01,75.02,75.03,75.04,75.05,75.06,75.07,75.08,75.09,75.1,75.11,75.12,75.13,75.14,75.15,75.16,75.17,75.18,75.19,75.2,3/16/2013,0.75,Berkshire,1074.001,"1,225",7.51,Open town meeting,JamesR,PO #1775,Tnomerge,MA,MA-01258x,usa
Stockbridge,01262,Town of Stockbridge,1739 Stockbridge Road,Stockbridge,MA,01262,US,617-739 1739,County of Berkshire,Established in 1739,76.01,76.02,76.03,76.04,76.05,76.06,76.07,76.08,76.09,76.1,76.11,76.12,76.13,76.14,76.15,76.16,76.17,76.18,76.19,76.2,3/17/2013,0.76,Berkshire,1075.001,"1,947",7.61,Open town meeting,TomH,PO #1739,Egdirbkcots,MA,MA-01262,usa
Tyringham,01264,Town of Tyringham,1762 Tyringham Road,Tyringham,MA,01264,US,617-762 1762,County of Berkshire,Established in 1762,77.01,77.02,77.03,77.04,77.05,77.06,77.07,77.08,77.09,77.1,77.11,77.12,77.13,77.14,77.15,77.16,77.17,77.18,77.19,77.2,3/18/2013,0.77,Berkshire,1076.001,327,7.71,Open town meeting,CoreyM,PO #1762,Mahgniryt,MA,MA-01264,usa
West.Stockbridge,01266,Town of West Stockbridge,1775 West Stockbridge Road,West Stockbridge,MA,01266,US,617-775 1775,County of Berkshire,Established in 1775,78.01,78.02,78.03,78.04,78.05,78.06,78.07,78.08,78.09,78.1,78.11,78.12,78.13,78.14,78.15,78.16,78.17,78.18,78.19,78.2,3/19/2013,0.78,Berkshire,1077.001,"1,306",7.81,Open town meeting,SamS,PO #1775,Egdirbkcots Tsew,MA,MA-01266,usa
Williamstown,01267,Town of Williamstown,1765 Williamstown Road,Williamstown,MA,01267,US,617-765 1765,County of Berkshire,Established in 1765,79.01,79.02,79.03,79.04,79.05,79.06,79.07,79.08,79.09,79.1,79.11,79.12,79.13,79.14,79.15,79.16,79.17,79.18,79.19,79.2,3/20/2013,0.79,Berkshire,1078.001,"7,754",7.91,Open town meeting,ShawnR,PO #1765,Nwotsmailliw,MA,MA-01267,usa
Windsor,01270,Town of Windsor,1771 Windsor Road,Windsor,MA,01270,US,617-771 1771,County of Berkshire,Established in 1771,80.01,80.02,80.03,80.04,80.05,80.06,80.07,80.08,80.09,80.1,80.11,80.12,80.13,80.14,80.15,80.16,80.17,80.18,80.19,80.2,3/21/2013,0.8,Berkshire,1079.001,899,8.01,Open town meeting,JamesR,PO #1771,Rosdniw,MA,MA-01270,usa
Greenfield,01301,City of Greenfield,1775 Greenfield Road,Greenfield,MA,01301,US,617-775 1775,County of Franklin,Established in 1775,81.01,81.02,81.03,81.04,81.05,81.06,81.07,81.08,81.09,81.1,81.11,81.12,81.13,81.14,81.15,81.16,81.17,81.18,81.19,81.2,3/22/2013,0.81,Franklin,1080.001,"17,456",8.11,Mayor-council,TomH,PO #1775,Dleifneerg,MA,MA-01301,usa
Ashfield,01330,Town of Ashfield,1765 Ashfield Road,Ashfield,MA,01330,US,617-765 1765,County of Franklin,Established in 1765,82.01,82.02,82.03,82.04,82.05,82.06,82.07,82.08,82.09,82.1,82.11,82.12,82.13,82.14,82.15,82.16,82.17,82.18,82.19,82.2,3/23/2013,0.82,Franklin,1081.001,"1,737",8.21,Open town meeting,CoreyM,PO #1765,Dleifhsa,MA,MA-01330,usa
Athol,01331,Town of Athol,1762 Athol Road,Athol,MA,01331,US,617-762 1762,County of Worcester,Established in 1762,83.01,83.02,83.03,83.04,83.05,83.06,83.07,83.08,83.09,83.1,83.11,83.12,83.13,83.14,83.15,83.16,83.17,83.18,83.19,83.2,3/24/2013,0.83,Worcester,1082.001,"11,584",8.31,Open town meeting,SamS,PO #1762,Lohta,MA,MA-01331,usa
Phillipston,01331x,Town of Phillipston,1786 Phillipston Road,Phillipston,MA,01331x,US,617-786 1786,County of Worcester,Established in 1786,84.01,84.02,84.03,84.04,84.05,84.06,84.07,84.08,84.09,84.1,84.11,84.12,84.13,84.14,84.15,84.16,84.17,84.18,84.19,84.2,3/25/2013,0.84,Worcester,1083.001,"1,682",8.41,Open town meeting,ShawnR,PO #1786,Notspillihp,MA,MA-01331x,usa
Bernardston,01337,Town of Bernardston,1762 Bernardston Road,Bernardston,MA,01337,US,617-762 1762,County of Franklin,Established in 1762,85.01,85.02,85.03,85.04,85.05,85.06,85.07,85.08,85.09,85.1,85.11,85.12,85.13,85.14,85.15,85.16,85.17,85.18,85.19,85.2,3/26/2013,0.85,Franklin,1084.001,"2,129",8.51,Open town meeting,JamesR,PO #1762,Notsdranreb,MA,MA-01337,usa
Leyden,01337x,Town of Leyden,1809 Leyden Road,Leyden,MA,01337x,US,617-809 1809,County of Franklin,Established in 1809,86.01,86.02,86.03,86.04,86.05,86.06,86.07,86.08,86.09,86.1,86.11,86.12,86.13,86.14,86.15,86.16,86.17,86.18,86.19,86.2,3/27/2013,0.86,Franklin,1085.001,711,8.61,Open town meeting,TomH,PO #1809,Nedyel,MA,MA-01337x,usa
Buckland,01338,Town of Buckland,1779 Buckland Road,Buckland,MA,01338,US,617-779 1779,County of Franklin,Established in 1779,87.01,87.02,87.03,87.04,87.05,87.06,87.07,87.08,87.09,87.1,87.11,87.12,87.13,87.14,87.15,87.16,87.17,87.18,87.19,87.2,3/28/2013,0.87,Franklin,1086.001,"1,902",8.71,Open town meeting,CoreyM,PO #1779,Dnalkcub,MA,MA-01338,usa
Charlemont,01339,Town of Charlemont,1765 Charlemont Road,Charlemont,MA,01339,US,617-765 1765,County of Franklin,Established in 1765,88.01,88.02,88.03,88.04,88.05,88.06,88.07,88.08,88.09,88.1,88.11,88.12,88.13,88.14,88.15,88.16,88.17,88.18,88.19,88.2,3/29/2013,0.88,Franklin,1087.001,"1,266",8.81,Open town meeting,SamS,PO #1765,Tnomelrahc,MA,MA-01339,usa
Hawley,01339x,Town of Hawley,1792 Hawley Road,Hawley,MA,01339x,US,617-792 1792,County of Franklin,Established in 1792,89.01,89.02,89.03,89.04,89.05,89.06,89.07,89.08,89.09,89.1,89.11,89.12,89.13,89.14,89.15,89.16,89.17,89.18,89.19,89.2,3/30/2013,0.89,Franklin,1088.001,337,8.91,Open town meeting,ShawnR,PO #1792,Yelwah,MA,MA-01339x,usa
Colrain,01340,Town of Colrain,1761 Colrain Road,Colrain,MA,01340,US,617-761 1761,County of Franklin,Established in 1761,90.01,90.02,90.03,90.04,90.05,90.06,90.07,90.08,90.09,90.1,90.11,90.12,90.13,90.14,90.15,90.16,90.17,90.18,90.19,90.2,3/31/2013,0.9,Franklin,1089.001,"1,671",9.01,Open town meeting,JamesR,PO #1761,Niarloc,MA,MA-01340,usa
Conway,01341,Town of Conway,1775 Conway Road,Conway,MA,01341,US,617-775 1775,County of Franklin,Established in 1775,91.01,91.02,91.03,91.04,91.05,91.06,91.07,91.08,91.09,91.1,91.11,91.12,91.13,91.14,91.15,91.16,91.17,91.18,91.19,91.2,4/1/2013,0.91,Franklin,1090.001,"1,897",9.11,Open town meeting,TomH,PO #1775,Yawnoc,MA,MA-01341,usa
Deerfield,01342,Town of Deerfield,1677 Deerfield Road,Deerfield,MA,01342,US,617-677 1677,County of Franklin,Established in 1677,92.01,92.02,92.03,92.04,92.05,92.06,92.07,92.08,92.09,92.1,92.11,92.12,92.13,92.14,92.15,92.16,92.17,92.18,92.19,92.2,4/2/2013,0.92,Franklin,1091.001,"5,125",9.21,Open town meeting,CoreyM,PO #1677,Dleifreed,MA,MA-01342,usa
Erving,01344,Town of Erving,1838 Erving Road,Erving,MA,01344,US,617-838 1838,County of Franklin,Established in 1838,93.01,93.02,93.03,93.04,93.05,93.06,93.07,93.08,93.09,93.1,93.11,93.12,93.13,93.14,93.15,93.16,93.17,93.18,93.19,93.2,4/3/2013,0.93,Franklin,1092.001,"1,800",9.31,Open town meeting,SamS,PO #1838,Gnivre,MA,MA-01344,usa
Heath,01346,Town of Heath,1785 Heath Road,Heath,MA,01346,US,617-785 1785,County of Franklin,Established in 1785,94.01,94.02,94.03,94.04,94.05,94.06,94.07,94.08,94.09,94.1,94.11,94.12,94.13,94.14,94.15,94.16,94.17,94.18,94.19,94.2,4/4/2013,0.94,Franklin,1093.001,706,9.41,Open town meeting,ShawnR,PO #1785,Htaeh,MA,MA-01346,usa
Monroe,01350,Town of Monroe,1822 Monroe Road,Monroe,MA,01350,US,617-822 1822,County of Franklin,Established in 1822,95.01,95.02,95.03,95.04,95.05,95.06,95.07,95.08,95.09,95.1,95.11,95.12,95.13,95.14,95.15,95.16,95.17,95.18,95.19,95.2,4/5/2013,0.95,Franklin,1094.001,121,9.51,Open town meeting,JamesR,PO #1822,Eornom,MA,MA-01350,usa
Montague,01351,Town of Montague,1775 Montague Road,Montague,MA,01351,US,617-775 1775,County of Franklin,Established in 1775,96.01,96.02,96.03,96.04,96.05,96.06,96.07,96.08,96.09,96.1,96.11,96.12,96.13,96.14,96.15,96.16,96.17,96.18,96.19,96.2,4/6/2013,0.96,Franklin,1095.001,"8,437",9.61,Representative town meeting,TomH,PO #1775,Eugatnom,MA,MA-01351,usa
Gill,01354,Town of Gill,1793 Gill Road,Gill,MA,01354,US,617-793 1793,County of Franklin,Established in 1793,97.01,97.02,97.03,97.04,97.05,97.06,97.07,97.08,97.09,97.1,97.11,97.12,97.13,97.14,97.15,97.16,97.17,97.18,97.19,97.2,4/7/2013,0.97,Franklin,1096.001,"1,500",9.71,Open town meeting,CoreyM,PO #1793,Llig,MA,MA-01354,usa
New Salem,01355,Town of New Salem,1775 New Salem Road,New Salem,MA,01355,US,617-775 1775,County of Franklin,Established in 1775,98.01,98.02,98.03,98.04,98.05,98.06,98.07,98.08,98.09,98.1,98.11,98.12,98.13,98.14,98.15,98.16,98.17,98.18,98.19,98.2,4/8/2013,0.98,Franklin,1097.001,990,9.81,Open town meeting,SamS,PO #1775,Melas Wen,MA,MA-01355,usa
Northfield,01360,Town of Northfield,1723 Northfield Road,Northfield,MA,01360,US,617-723 1723,County of Franklin,Established in 1723,99.01,99.02,99.03,99.04,99.05,99.06,99.07,99.08,99.09,99.1,99.11,99.12,99.13,99.14,99.15,99.16,99.17,99.18,99.19,99.2,4/9/2013,0.99,Franklin,1098.001,"3,032",9.91,Open town meeting,ShawnR,PO #1723,Dleifhtron,MA,MA-01360,usa
Orange,01364,Town of Orange,1810 Orange Road,Orange,MA,01364,US,617-810 1810,County of Franklin,Established in 1810,100.01,100.02,100.03,100.04,100.05,100.06,100.07,100.08,100.09,100.1,100.11,100.12,100.13,100.14,100.15,100.16,100.17,100.18,100.19,100.2,4/10/2013,1,Franklin,1099.001,"7,839",10.01,Open town meeting,JamesR,PO #1810,Egnaro,MA,MA-01364,usa
Petersham,01366,Town of Petersham,1754 Petersham Road,Petersham,MA,01366,US,617-754 1754,County of Worcester,Established in 1754,101.01,101.02,101.03,101.04,101.05,101.06,101.07,101.08,101.09,101.1,101.11,101.12,101.13,101.14,101.15,101.16,101.17,101.18,101.19,101.2,4/11/2013,1.01,Worcester,1100.001,"1,234",10.11,Open town meeting,TomH,PO #1754,Mahsretep,MA,MA-01366,usa
Rowe,01367,Town of Rowe,1785 Rowe Road,Rowe,MA,01367,US,617-785 1785,County of Franklin,Established in 1785,102.01,102.02,102.03,102.04,102.05,102.06,102.07,102.08,102.09,102.1,102.11,102.12,102.13,102.14,102.15,102.16,102.17,102.18,102.19,102.2,4/12/2013,1.02,Franklin,1101.001,393,10.21,Open town meeting,CoreyM,PO #1785,Ewor,MA,MA-01367,usa
Royalston,01368,Town of Royalston,1765 Royalston Road,Royalston,MA,01368,US,617-765 1765,County of Worcester,Established in 1765,103.01,103.02,103.03,103.04,103.05,103.06,103.07,103.08,103.09,103.1,103.11,103.12,103.13,103.14,103.15,103.16,103.17,103.18,103.19,103.2,4/13/2013,1.03,Worcester,1102.001,"1,258",10.31,Open town meeting,SamS,PO #1765,Notslayor,MA,MA-01368,usa
Shelburne,01370,Town of Shelburne,1775 Shelburne Road,Shelburne,MA,01370,US,617-775 1775,County of Franklin,Established in 1775,104.01,104.02,104.03,104.04,104.05,104.06,104.07,104.08,104.09,104.1,104.11,104.12,104.13,104.14,104.15,104.16,104.17,104.18,104.19,104.2,4/14/2013,1.04,Franklin,1103.001,"1,893",10.41,Open town meeting,ShawnR,PO #1775,Enrublehs,MA,MA-01370,usa
Sunderland,01375,Town of Sunderland,1714 Sunderland Road,Sunderland,MA,01375,US,617-714 1714,County of Franklin,Established in 1714,105.01,105.02,105.03,105.04,105.05,105.06,105.07,105.08,105.09,105.1,105.11,105.12,105.13,105.14,105.15,105.16,105.17,105.18,105.19,105.2,4/15/2013,1.05,Franklin,1104.001,"3,684",10.51,Open town meeting,JamesR,PO #1714,Dnalrednus,MA,MA-01375,usa
Warwick,01378,Town of Warwick,1763 Warwick Road,Warwick,MA,01378,US,617-763 1763,County of Franklin,Established in 1763,106.01,106.02,106.03,106.04,106.05,106.06,106.07,106.08,106.09,106.1,106.11,106.12,106.13,106.14,106.15,106.16,106.17,106.18,106.19,106.2,4/16/2013,1.06,Franklin,1105.001,780,10.61,Open town meeting,TomH,PO #1763,Kciwraw,MA,MA-01378,usa
Wendell,01379,Town of Wendell,1781 Wendell Road,Wendell,MA,01379,US,617-781 1781,County of Franklin,Established in 1781,107.01,107.02,107.03,107.04,107.05,107.06,107.07,107.08,107.09,107.1,107.11,107.12,107.13,107.14,107.15,107.16,107.17,107.18,107.19,107.2,4/17/2013,1.07,Franklin,1106.001,848,10.71,Open town meeting,CoreyM,PO #1781,Llednew,MA,MA-01379,usa
Fitchburg,01420,City of Fitchburg,1764 Fitchburg Road,Fitchburg,MA,01420,US,617-764 1764,County of Worcester,Established in 1764,108.01,108.02,108.03,108.04,108.05,108.06,108.07,108.08,108.09,108.1,108.11,108.12,108.13,108.14,108.15,108.16,108.17,108.18,108.19,108.2,4/18/2013,1.08,Worcester,1107.001,"40,318",10.81,Mayor-council,SamS,PO #1764,Grubhctif,MA,MA-01420,usa
Ashburnham,01430,Town of Ashburnham,1765 Ashburnham Road,Ashburnham,MA,01430,US,617-765 1765,County of Worcester,Established in 1765,109.01,109.02,109.03,109.04,109.05,109.06,109.07,109.08,109.09,109.1,109.11,109.12,109.13,109.14,109.15,109.16,109.17,109.18,109.19,109.2,4/19/2013,1.09,Worcester,1108.001,"6,081",10.91,Open town meeting,ShawnR,PO #1765,Mahnrubhsa,MA,MA-01430,usa
Ashby,01431,Town of Ashby,1767 Ashby Road,Ashby,MA,01431,US,617-767 1767,County of Middlesex,Established in 1767,110.01,110.02,110.03,110.04,110.05,110.06,110.07,110.08,110.09,110.1,110.11,110.12,110.13,110.14,110.15,110.16,110.17,110.18,110.19,110.2,4/20/2013,1.1,Middlesex,1109.001,"3,074",11.01,Open town meeting,JamesR,PO #1767,Ybhsa,MA,MA-01431,usa
Ayer,01432,Town of Ayer,1871 Ayer Road,Ayer,MA,01432,US,617-871 1871,County of Middlesex,Established in 1871,111.01,111.02,111.03,111.04,111.05,111.06,111.07,111.08,111.09,111.1,111.11,111.12,111.13,111.14,111.15,111.16,111.17,111.18,111.19,111.2,4/21/2013,1.11,Middlesex,1110.001,"7,427",11.11,Open town meeting,TomH,PO #1871,Reya,MA,MA-01432,usa
Gardner,01440,City of Gardner,1785 Gardner Road,Gardner,MA,01440,US,617-785 1785,County of Worcester,Established in 1785,112.01,112.02,112.03,112.04,112.05,112.06,112.07,112.08,112.09,112.1,112.11,112.12,112.13,112.14,112.15,112.16,112.17,112.18,112.19,112.2,4/22/2013,1.12,Worcester,1111.001,"20,228",11.21,Mayor-council,CoreyM,PO #1785,Rendrag,MA,MA-01440,usa
Westminster,01441,Town of Westminster,1770 Westminster Road,Westminster,MA,01441,US,617-770 1770,County of Worcester,Established in 1770,113.01,113.02,113.03,113.04,113.05,113.06,113.07,113.08,113.09,113.1,113.11,113.12,113.13,113.14,113.15,113.16,113.17,113.18,113.19,113.2,4/23/2013,1.13,Worcester,1112.001,"7,277",11.31,Open town meeting,SamS,PO #1770,Retsnimtsew,MA,MA-01441,usa
Groton,01450,Town of Groton,1655 Groton Road,Groton,MA,01450,US,617-655 1655,County of Middlesex,Established in 1655,114.01,114.02,114.03,114.04,114.05,114.06,114.07,114.08,114.09,114.1,114.11,114.12,114.13,114.14,114.15,114.16,114.17,114.18,114.19,114.2,4/24/2013,1.14,Middlesex,1113.001,"10,646",11.41,Open town meeting,ShawnR,PO #1655,Notorg,MA,MA-01450,usa
Harvard,01451,Town of Harvard,1732 Harvard Road,Harvard,MA,01451,US,617-732 1732,County of Worcester,Established in 1732,115.01,115.02,115.03,115.04,115.05,115.06,115.07,115.08,115.09,115.1,115.11,115.12,115.13,115.14,115.15,115.16,115.17,115.18,115.19,115.2,4/25/2013,1.15,Worcester,1114.001,"6,520",11.51,Open town meeting,JamesR,PO #1732,Dravrah,MA,MA-01451,usa
Hubbardston,01452,Town of Hubbardston,1775 Hubbardston Road,Hubbardston,MA,01452,US,617-775 1775,County of Worcester,Established in 1775,116.01,116.02,116.03,116.04,116.05,116.06,116.07,116.08,116.09,116.1,116.11,116.12,116.13,116.14,116.15,116.16,116.17,116.18,116.19,116.2,4/26/2013,1.16,Worcester,1115.001,"4,382",11.61,Open town meeting,TomH,PO #1775,Notsdrabbuh,MA,MA-01452,usa
Leominster,01453,City of Leominster,1740 Leominster Road,Leominster,MA,01453,US,617-740 1740,County of Worcester,Established in 1740,117.01,117.02,117.03,117.04,117.05,117.06,117.07,117.08,117.09,117.1,117.11,117.12,117.13,117.14,117.15,117.16,117.17,117.18,117.19,117.2,4/27/2013,1.17,Worcester,1116.001,"40,759",11.71,Mayor-council,CoreyM,PO #1740,Retsnimoel,MA,MA-01453,usa
Littleton,01460,Town of Littleton,1715 Littleton Road,Littleton,MA,01460,US,617-715 1715,County of Middlesex,Established in 1715,118.01,118.02,118.03,118.04,118.05,118.06,118.07,118.08,118.09,118.1,118.11,118.12,118.13,118.14,118.15,118.16,118.17,118.18,118.19,118.2,4/28/2013,1.18,Middlesex,1117.001,"8,924",11.81,Open town meeting,SamS,PO #1715,Notelttil,MA,MA-01460,usa
Lunenburg,01462,Town of Lunenburg,1728 Lunenburg Road,Lunenburg,MA,01462,US,617-728 1728,County of Worcester,Established in 1728,119.01,119.02,119.03,119.04,119.05,119.06,119.07,119.08,119.09,119.1,119.11,119.12,119.13,119.14,119.15,119.16,119.17,119.18,119.19,119.2,4/29/2013,1.19,Worcester,1118.001,"10,086",11.91,Open town meeting,ShawnR,PO #1728,Grubnenul,MA,MA-01462,usa
Pepperell,01463,Town of Pepperell,1775 Pepperell Road,Pepperell,MA,01463,US,617-775 1775,County of Middlesex,Established in 1775,120.01,120.02,120.03,120.04,120.05,120.06,120.07,120.08,120.09,120.1,120.11,120.12,120.13,120.14,120.15,120.16,120.17,120.18,120.19,120.2,4/30/2013,1.2,Middlesex,1119.001,"11,497",12.01,Open town meeting,JamesR,PO #1775,Llereppep,MA,MA-01463,usa
Shirley,01464,Town of Shirley,1775 Shirley Road,Shirley,MA,01464,US,617-775 1775,County of Middlesex,Established in 1775,121.01,121.02,121.03,121.04,121.05,121.06,121.07,121.08,121.09,121.1,121.11,121.12,121.13,121.14,121.15,121.16,121.17,121.18,121.19,121.2,5/1/2013,1.21,Middlesex,1120.001,"7,211",12.11,Open town meeting,TomH,PO #1775,Yelrihs,MA,MA-01464,usa
Templeton,01468,Town of Templeton,1762 Templeton Road,Templeton,MA,01468,US,617-762 1762,County of Worcester,Established in 1762,122.01,122.02,122.03,122.04,122.05,122.06,122.07,122.08,122.09,122.1,122.11,122.12,122.13,122.14,122.15,122.16,122.17,122.18,122.19,122.2,5/2/2013,1.22,Worcester,1121.001,"8,013",12.21,Open town meeting,CoreyM,PO #1762,Notelpmet,MA,MA-01468,usa
Townsend,01469,Town of Townsend,1732 Townsend Road,Townsend,MA,01469,US,617-732 1732,County of Middlesex,Established in 1732,123.01,123.02,123.03,123.04,123.05,123.06,123.07,123.08,123.09,123.1,123.11,123.12,123.13,123.14,123.15,123.16,123.17,123.18,123.19,123.2,5/3/2013,1.23,Middlesex,1122.001,"8,926",12.31,Open town meeting,SamS,PO #1732,Dnesnwot,MA,MA-01469,usa
Winchendon,01475,Town of Winchendon,1764 Winchendon Road,Winchendon,MA,01475,US,617-764 1764,County of Worcester,Established in 1764,124.01,124.02,124.03,124.04,124.05,124.06,124.07,124.08,124.09,124.1,124.11,124.12,124.13,124.14,124.15,124.16,124.17,124.18,124.19,124.2,5/4/2013,1.24,Worcester,1123.001,"10,300",12.41,Open town meeting,ShawnR,PO #1764,Nodnehcniw,MA,MA-01475,usa
Auburn,01501,Town of Auburn,1778 Auburn Road,Auburn,MA,01501,US,617-778 1778,County of Worcester,Established in 1778,125.01,125.02,125.03,125.04,125.05,125.06,125.07,125.08,125.09,125.1,125.11,125.12,125.13,125.14,125.15,125.16,125.17,125.18,125.19,125.2,5/5/2013,1.25,Worcester,1124.001,"16,188",12.51,Representative town meeting,JamesR,PO #1778,Nrubua,MA,MA-01501,usa
Berlin,01503,Town of Berlin,1812 Berlin Road,Berlin,MA,01503,US,617-812 1812,County of Worcester,Established in 1812,126.01,126.02,126.03,126.04,126.05,126.06,126.07,126.08,126.09,126.1,126.11,126.12,126.13,126.14,126.15,126.16,126.17,126.18,126.19,126.2,5/6/2013,1.26,Worcester,1125.001,"2,866",12.61,Open town meeting,TomH,PO #1812,Nilreb,MA,MA-01503,usa
Blackstone,01504,Town of Blackstone,1845 Blackstone Road,Blackstone,MA,01504,US,617-845 1845,County of Worcester,Established in 1845,127.01,127.02,127.03,127.04,127.05,127.06,127.07,127.08,127.09,127.1,127.11,127.12,127.13,127.14,127.15,127.16,127.17,127.18,127.19,127.2,5/7/2013,1.27,Worcester,1126.001,"9,026",12.71,Open town meeting,CoreyM,PO #1845,Enotskcalb,MA,MA-01504,usa
Boylston,01505,Town of Boylston,1785 Boylston Road,Boylston,MA,01505,US,617-785 1785,County of Worcester,Established in 1785,128.01,128.02,128.03,128.04,128.05,128.06,128.07,128.08,128.09,128.1,128.11,128.12,128.13,128.14,128.15,128.16,128.17,128.18,128.19,128.2,5/8/2013,1.28,Worcester,1127.001,"4,355",12.81,Open town meeting,SamS,PO #1785,Notslyob,MA,MA-01505,usa
Brookfield,01506,Town of Brookfield,1718 Brookfield Road,Brookfield,MA,01506,US,617-718 1718,County of Worcester,Established in 1718,129.01,129.02,129.03,129.04,129.05,129.06,129.07,129.08,129.09,129.1,129.11,129.12,129.13,129.14,129.15,129.16,129.17,129.18,129.19,129.2,5/9/2013,1.29,Worcester,1128.001,"3,390",12.91,Open town meeting,ShawnR,PO #1718,Dleifkoorb,MA,MA-01506,usa
Charlton,01507,Town of Charlton,1775 Charlton Road,Charlton,MA,01507,US,617-775 1775,County of Worcester,Established in 1775,130.01,130.02,130.03,130.04,130.05,130.06,130.07,130.08,130.09,130.1,130.11,130.12,130.13,130.14,130.15,130.16,130.17,130.18,130.19,130.2,5/10/2013,1.3,Worcester,1129.001,"12,981",13.01,Open town meeting,JamesR,PO #1775,Notlrahc,MA,MA-01507,usa
Clinton,01510,Town of Clinton,1850 Clinton Road,Clinton,MA,01510,US,617-850 1850,County of Worcester,Established in 1850,131.01,131.02,131.03,131.04,131.05,131.06,131.07,131.08,131.09,131.1,131.11,131.12,131.13,131.14,131.15,131.16,131.17,131.18,131.19,131.2,5/11/2013,1.31,Worcester,1130.001,"13,606",13.11,Open town meeting,TomH,PO #1850,Notnilc,MA,MA-01510,usa
East.Brookfield,01515,Town of East Brookfield,1920 East Brookfield Road,East Brookfield,MA,01515,US,617-920 1920,County of Worcester,Established in 1920,132.01,132.02,132.03,132.04,132.05,132.06,132.07,132.08,132.09,132.1,132.11,132.12,132.13,132.14,132.15,132.16,132.17,132.18,132.19,132.2,5/12/2013,1.32,Worcester,1131.001,"2,183",13.21,Open town meeting,CoreyM,PO #1920,Dleifkoorb Tsae,MA,MA-01515,usa
Douglas,01516,Town of Douglas,1775 Douglas Road,Douglas,MA,01516,US,617-775 1775,County of Worcester,Established in 1775,133.01,133.02,133.03,133.04,133.05,133.06,133.07,133.08,133.09,133.1,133.11,133.12,133.13,133.14,133.15,133.16,133.17,133.18,133.19,133.2,5/13/2013,1.33,Worcester,1132.001,"8,471",13.31,Open town meeting,SamS,PO #1775,Salguod,MA,MA-01516,usa
Grafton,01519,Town of Grafton,1735 Grafton Road,Grafton,MA,01519,US,617-735 1735,County of Worcester,Established in 1735,134.01,134.02,134.03,134.04,134.05,134.06,134.07,134.08,134.09,134.1,134.11,134.12,134.13,134.14,134.15,134.16,134.17,134.18,134.19,134.2,5/14/2013,1.34,Worcester,1133.001,"17,765",13.41,Open town meeting,ShawnR,PO #1735,Notfarg,MA,MA-01519,usa
Holden,01520,Town of Holden,1741 Holden Road,Holden,MA,01520,US,617-741 1741,County of Worcester,Established in 1741,135.01,135.02,135.03,135.04,135.05,135.06,135.07,135.08,135.09,135.1,135.11,135.12,135.13,135.14,135.15,135.16,135.17,135.18,135.19,135.2,5/15/2013,1.35,Worcester,1134.001,"17,346",13.51,Open town meeting,JamesR,PO #1741,Nedloh,MA,MA-01520,usa
Holland,01521,Town of Holland,1835 Holland Road,Holland,MA,01521,US,617-835 1835,County of Hampden,Established in 1835,136.01,136.02,136.03,136.04,136.05,136.06,136.07,136.08,136.09,136.1,136.11,136.12,136.13,136.14,136.15,136.16,136.17,136.18,136.19,136.2,5/16/2013,1.36,Hampden,1135.001,"2,481",13.61,Open town meeting,TomH,PO #1835,Dnalloh,MA,MA-01521,usa
Lancaster,01523,Town of Lancaster,1653 Lancaster Road,Lancaster,MA,01523,US,617-653 1653,County of Worcester,Established in 1653,137.01,137.02,137.03,137.04,137.05,137.06,137.07,137.08,137.09,137.1,137.11,137.12,137.13,137.14,137.15,137.16,137.17,137.18,137.19,137.2,5/17/2013,1.37,Worcester,1136.001,"8,055",13.71,Open town meeting,CoreyM,PO #1653,Retsacnal,MA,MA-01523,usa
Leicester,01524,Town of Leicester,1714 Leicester Road,Leicester,MA,01524,US,617-714 1714,County of Worcester,Established in 1714,138.01,138.02,138.03,138.04,138.05,138.06,138.07,138.08,138.09,138.1,138.11,138.12,138.13,138.14,138.15,138.16,138.17,138.18,138.19,138.2,5/18/2013,1.38,Worcester,1137.001,"10,970",13.81,Open town meeting,SamS,PO #1714,Retseciel,MA,MA-01524,usa
Millbury,01527,Town of Millbury,1813 Millbury Road,Millbury,MA,01527,US,617-813 1813,County of Worcester,Established in 1813,139.01,139.02,139.03,139.04,139.05,139.06,139.07,139.08,139.09,139.1,139.11,139.12,139.13,139.14,139.15,139.16,139.17,139.18,139.19,139.2,5/19/2013,1.39,Worcester,1138.001,"13,261",13.91,Open town meeting,ShawnR,PO #1813,Yrubllim,MA,MA-01527,usa
Millville,01529,Town of Millville,1916 Millville Road,Millville,MA,01529,US,617-916 1916,County of Worcester,Established in 1916,140.01,140.02,140.03,140.04,140.05,140.06,140.07,140.08,140.09,140.1,140.11,140.12,140.13,140.14,140.15,140.16,140.17,140.18,140.19,140.2,5/20/2013,1.4,Worcester,1139.001,"3,190",14.01,Open town meeting,JamesR,PO #1916,Ellivllim,MA,MA-01529,usa
New Braintree,01531,Town of New Braintree,1775 New Braintree Road,New Braintree,MA,01531,US,617-775 1775,County of Worcester,Established in 1775,141.01,141.02,141.03,141.04,141.05,141.06,141.07,141.08,141.09,141.1,141.11,141.12,141.13,141.14,141.15,141.16,141.17,141.18,141.19,141.2,5/21/2013,1.41,Worcester,1140.001,999,14.11,Open town meeting,TomH,PO #1775,Eertniarb Wen,MA,MA-01531,usa
Northborough,01532,Town of Northborough,1775 Northborough Road,Northborough,MA,01532,US,617-775 1775,County of Worcester,Established in 1775,142.01,142.02,142.03,142.04,142.05,142.06,142.07,142.08,142.09,142.1,142.11,142.12,142.13,142.14,142.15,142.16,142.17,142.18,142.19,142.2,5/22/2013,1.42,Worcester,1141.001,"14,155",14.21,Open town meeting,CoreyM,PO #1775,Hguorobhtron,MA,MA-01532,usa
Northbridge,01534,Town of Northbridge,1775 Northbridge Road,Northbridge,MA,01534,US,617-775 1775,County of Worcester,Established in 1775,143.01,143.02,143.03,143.04,143.05,143.06,143.07,143.08,143.09,143.1,143.11,143.12,143.13,143.14,143.15,143.16,143.17,143.18,143.19,143.2,5/23/2013,1.43,Worcester,1142.001,"15,707",14.31,Open town meeting,SamS,PO #1775,Egdirbhtron,MA,MA-01534,usa
North.Brookfield,01535,Town of North Brookfield,1812 North Brookfield Road,North Brookfield,MA,01535,US,617-812 1812,County of Worcester,Established in 1812,144.01,144.02,144.03,144.04,144.05,144.06,144.07,144.08,144.09,144.1,144.11,144.12,144.13,144.14,144.15,144.16,144.17,144.18,144.19,144.2,5/24/2013,1.44,Worcester,1143.001,"4,680",14.41,Open town meeting,ShawnR,PO #1812,Dleifkoorb Htron,MA,MA-01535,usa
Oxford,01540,Town of Oxford,1713 Oxford Road,Oxford,MA,01540,US,617-713 1713,County of Worcester,Established in 1713,145.01,145.02,145.03,145.04,145.05,145.06,145.07,145.08,145.09,145.1,145.11,145.12,145.13,145.14,145.15,145.16,145.17,145.18,145.19,145.2,5/25/2013,1.45,Worcester,1144.001,"13,709",14.51,Open town meeting,JamesR,PO #1713,Drofxo,MA,MA-01540,usa
Princeton,01541,Town of Princeton,1771 Princeton Road,Princeton,MA,01541,US,617-771 1771,County of Worcester,Established in 1771,146.01,146.02,146.03,146.04,146.05,146.06,146.07,146.08,146.09,146.1,146.11,146.12,146.13,146.14,146.15,146.16,146.17,146.18,146.19,146.2,5/26/2013,1.46,Worcester,1145.001,"3,413",14.61,Open town meeting,TomH,PO #1771,Notecnirp,MA,MA-01541,usa
Rutland,01543,Town of Rutland,1713 Rutland Road,Rutland,MA,01543,US,617-713 1713,County of Worcester,Established in 1713,147.01,147.02,147.03,147.04,147.05,147.06,147.07,147.08,147.09,147.1,147.11,147.12,147.13,147.14,147.15,147.16,147.17,147.18,147.19,147.2,5/27/2013,1.47,Worcester,1146.001,"7,973",14.71,Open town meeting,CoreyM,PO #1713,Dnaltur,MA,MA-01543,usa
Shrewsbury,01545,Town of Shrewsbury,1727 Shrewsbury Road,Shrewsbury,MA,01545,US,617-727 1727,County of Worcester,Established in 1727,148.01,148.02,148.03,148.04,148.05,148.06,148.07,148.08,148.09,148.1,148.11,148.12,148.13,148.14,148.15,148.16,148.17,148.18,148.19,148.2,5/28/2013,1.48,Worcester,1147.001,"35,608",14.81,Representative town meeting,SamS,PO #1727,Yrubswerhs,MA,MA-01545,usa
Southbridge,01550,City of Southbridge,1816 Southbridge Road,Southbridge,MA,01550,US,617-816 1816,County of Worcester,Established in 1816,149.01,149.02,149.03,149.04,149.05,149.06,149.07,149.08,149.09,149.1,149.11,149.12,149.13,149.14,149.15,149.16,149.17,149.18,149.19,149.2,5/29/2013,1.49,Worcester,1148.001,"16,719",14.91,Council-manager,ShawnR,PO #1816,Egdirbhtuos,MA,MA-01550,usa
Spencer,01562,Town of Spencer,1775 Spencer Road,Spencer,MA,01562,US,617-775 1775,County of Worcester,Established in 1775,150.01,150.02,150.03,150.04,150.05,150.06,150.07,150.08,150.09,150.1,150.11,150.12,150.13,150.14,150.15,150.16,150.17,150.18,150.19,150.2,5/30/2013,1.5,Worcester,1149.001,"11,688",15.01,Open town meeting,JamesR,PO #1775,Recneps,MA,MA-01562,usa
Sterling,01564,Town of Sterling,1781 Sterling Road,Sterling,MA,01564,US,617-781 1781,County of Worcester,Established in 1781,151.01,151.02,151.03,151.04,151.05,151.06,151.07,151.08,151.09,151.1,151.11,151.12,151.13,151.14,151.15,151.16,151.17,151.18,151.19,151.2,5/31/2013,1.51,Worcester,1150.001,"7,808",15.11,Open town meeting,TomH,PO #1781,Gnilrets,MA,MA-01564,usa
Sturbridge,01566,Town of Sturbridge,1738 Sturbridge Road,Sturbridge,MA,01566,US,617-738 1738,County of Worcester,Established in 1738,152.01,152.02,152.03,152.04,152.05,152.06,152.07,152.08,152.09,152.1,152.11,152.12,152.13,152.14,152.15,152.16,152.17,152.18,152.19,152.2,6/1/2013,1.52,Worcester,1151.001,"9,268",15.21,Open town meeting,CoreyM,PO #1738,Egdirbruts,MA,MA-01566,usa
Upton,01568,Town of Upton,1735 Upton Road,Upton,MA,01568,US,617-735 1735,County of Worcester,Established in 1735,153.01,153.02,153.03,153.04,153.05,153.06,153.07,153.08,153.09,153.1,153.11,153.12,153.13,153.14,153.15,153.16,153.17,153.18,153.19,153.2,6/2/2013,1.53,Worcester,1152.001,"7,542",15.31,Open town meeting,SamS,PO #1735,Notpu,MA,MA-01568,usa
Uxbridge,01569,Town of Uxbridge,1727 Uxbridge Road,Uxbridge,MA,01569,US,617-727 1727,County of Worcester,Established in 1727,154.01,154.02,154.03,154.04,154.05,154.06,154.07,154.08,154.09,154.1,154.11,154.12,154.13,154.14,154.15,154.16,154.17,154.18,154.19,154.2,6/3/2013,1.54,Worcester,1153.001,"13,457",15.41,Representative town meeting,ShawnR,PO #1727,Egdirbxu,MA,MA-01569,usa
Webster,01570,Town of Webster,1832 Webster Road,Webster,MA,01570,US,617-832 1832,County of Worcester,Established in 1832,155.01,155.02,155.03,155.04,155.05,155.06,155.07,155.08,155.09,155.1,155.11,155.12,155.13,155.14,155.15,155.16,155.17,155.18,155.19,155.2,6/4/2013,1.55,Worcester,1154.001,"16,767",15.51,Open town meeting,JamesR,PO #1832,Retsbew,MA,MA-01570,usa
Dudley,01571,Town of Dudley,1732 Dudley Road,Dudley,MA,01571,US,617-732 1732,County of Worcester,Established in 1732,156.01,156.02,156.03,156.04,156.05,156.06,156.07,156.08,156.09,156.1,156.11,156.12,156.13,156.14,156.15,156.16,156.17,156.18,156.19,156.2,6/5/2013,1.56,Worcester,1155.001,"11,390",15.61,Open town meeting,TomH,PO #1732,Yeldud,MA,MA-01571,usa
Westborough,01580,Town of Westborough,1717 Westborough Road,Westborough,MA,01580,US,617-717 1717,County of Worcester,Established in 1717,157.01,157.02,157.03,157.04,157.05,157.06,157.07,157.08,157.09,157.1,157.11,157.12,157.13,157.14,157.15,157.16,157.17,157.18,157.19,157.2,6/6/2013,1.57,Worcester,1156.001,"18,272",15.71,Open town meeting,CoreyM,PO #1717,Hguorobtsew,MA,MA-01580,usa
West.Boylston,01583,Town of West Boylston,1808 West Boylston Road,West Boylston,MA,01583,US,617-808 1808,County of Worcester,Established in 1808,158.01,158.02,158.03,158.04,158.05,158.06,158.07,158.08,158.09,158.1,158.11,158.12,158.13,158.14,158.15,158.16,158.17,158.18,158.19,158.2,6/7/2013,1.58,Worcester,1157.001,"7,669",15.81,Open town meeting,SamS,PO #1808,Notslyob Tsew,MA,MA-01583,usa
West.Brookfield,01585,Town of West Brookfield,1848 West Brookfield Road,West Brookfield,MA,01585,US,617-848 1848,County of Worcester,Established in 1848,159.01,159.02,159.03,159.04,159.05,159.06,159.07,159.08,159.09,159.1,159.11,159.12,159.13,159.14,159.15,159.16,159.17,159.18,159.19,159.2,6/8/2013,1.59,Worcester,1158.001,"3,701",15.91,Open town meeting,ShawnR,PO #1848,Dleifkoorb Tsew,MA,MA-01585,usa
Sutton,01590,Town of Sutton,1714 Sutton Road,Sutton,MA,01590,US,617-714 1714,County of Worcester,Established in 1714,160.01,160.02,160.03,160.04,160.05,160.06,160.07,160.08,160.09,160.1,160.11,160.12,160.13,160.14,160.15,160.16,160.17,160.18,160.19,160.2,6/9/2013,1.6,Worcester,1159.001,"8,963",16.01,Open town meeting,JamesR,PO #1714,Nottus,MA,MA-01590,usa
Worcester,01601,City of Worcester,1684 Worcester Road,Worcester,MA,01601,US,617-684 1684,County of Worcester,Established in 1684,161.01,161.02,161.03,161.04,161.05,161.06,161.07,161.08,161.09,161.1,161.11,161.12,161.13,161.14,161.15,161.16,161.17,161.18,161.19,161.2,6/10/2013,1.61,Worcester,1160.001,"181,045",16.11,Mayor-manager-council,TomH,PO #1684,Retsecrow,MA,MA-01601,usa
Paxton,01612,Town of Paxton,1775 Paxton Road,Paxton,MA,01612,US,617-775 1775,County of Worcester,Established in 1775,162.01,162.02,162.03,162.04,162.05,162.06,162.07,162.08,162.09,162.1,162.11,162.12,162.13,162.14,162.15,162.16,162.17,162.18,162.19,162.2,6/11/2013,1.62,Worcester,1161.001,"4,806",16.21,Open town meeting,CoreyM,PO #1775,Notxap,MA,MA-01612,usa
Tolland,01634,Town of Tolland,1810 Tolland Road,Tolland,MA,01634,US,617-810 1810,County of Hampden,Established in 1810,163.01,163.02,163.03,163.04,163.05,163.06,163.07,163.08,163.09,163.1,163.11,163.12,163.13,163.14,163.15,163.16,163.17,163.18,163.19,163.2,6/12/2013,1.63,Hampden,1162.001,485,16.31,Open town meeting,SamS,PO #1810,Dnallot,MA,MA-01634,usa
Framingham,01701,Town of Framingham,1700 Framingham Road,Framingham,MA,01701,US,617-700 1700,County of Middlesex,Established in 1700,164.01,164.02,164.03,164.04,164.05,164.06,164.07,164.08,164.09,164.1,164.11,164.12,164.13,164.14,164.15,164.16,164.17,164.18,164.19,164.2,6/13/2013,1.64,Middlesex,1163.001,"68,318",16.41,Representative town meeting,ShawnR,PO #1700,Mahgnimarf,MA,MA-01701,usa
Boxborough,01719,Town of Boxborough,1835 Boxborough Road,Boxborough,MA,01719,US,617-835 1835,County of Middlesex,Established in 1835,165.01,165.02,165.03,165.04,165.05,165.06,165.07,165.08,165.09,165.1,165.11,165.12,165.13,165.14,165.15,165.16,165.17,165.18,165.19,165.2,6/14/2013,1.65,Middlesex,1164.001,"4,996",16.51,Open town meeting,JamesR,PO #1835,Hguorobxob,MA,MA-01719,usa
Acton,01720,Town of Acton,1735 Acton Road,Acton,MA,01720,US,617-735 1735,County of Middlesex,Established in 1735,166.01,166.02,166.03,166.04,166.05,166.06,166.07,166.08,166.09,166.1,166.11,166.12,166.13,166.14,166.15,166.16,166.17,166.18,166.19,166.2,6/15/2013,1.66,Middlesex,1165.001,"21,924",16.61,Open town meeting,TomH,PO #1735,Notca,MA,MA-01720,usa
Ashland,01721,Town of Ashland,1846 Ashland Road,Ashland,MA,01721,US,617-846 1846,County of Middlesex,Established in 1846,167.01,167.02,167.03,167.04,167.05,167.06,167.07,167.08,167.09,167.1,167.11,167.12,167.13,167.14,167.15,167.16,167.17,167.18,167.19,167.2,6/16/2013,1.67,Middlesex,1166.001,"16,593",16.71,Open town meeting,CoreyM,PO #1846,Dnalhsa,MA,MA-01721,usa
Bedford,01730,Town of Bedford,1729 Bedford Road,Bedford,MA,01730,US,617-729 1729,County of Middlesex,Established in 1729,168.01,168.02,168.03,168.04,168.05,168.06,168.07,168.08,168.09,168.1,168.11,168.12,168.13,168.14,168.15,168.16,168.17,168.18,168.19,168.2,6/17/2013,1.68,Middlesex,1167.001,"13,320",16.81,Open town meeting,SamS,PO #1729,Drofdeb,MA,MA-01730,usa
Bolton,01740,Town of Bolton,1738 Bolton Road,Bolton,MA,01740,US,617-738 1738,County of Worcester,Established in 1738,169.01,169.02,169.03,169.04,169.05,169.06,169.07,169.08,169.09,169.1,169.11,169.12,169.13,169.14,169.15,169.16,169.17,169.18,169.19,169.2,6/18/2013,1.69,Worcester,1168.001,"4,897",16.91,Open town meeting,ShawnR,PO #1738,Notlob,MA,MA-01740,usa
Carlisle,01741,Town of Carlisle,1780 Carlisle Road,Carlisle,MA,01741,US,617-780 1780,County of Middlesex,Established in 1780,170.01,170.02,170.03,170.04,170.05,170.06,170.07,170.08,170.09,170.1,170.11,170.12,170.13,170.14,170.15,170.16,170.17,170.18,170.19,170.2,6/19/2013,1.7,Middlesex,1169.001,"4,852",17.01,Open town meeting,JamesR,PO #1780,Elsilrac,MA,MA-01741,usa
Concord,01742,Town of Concord,1635 Concord Road,Concord,MA,01742,US,617-635 1635,County of Middlesex,Established in 1635,171.01,171.02,171.03,171.04,171.05,171.06,171.07,171.08,171.09,171.1,171.11,171.12,171.13,171.14,171.15,171.16,171.17,171.18,171.19,171.2,6/20/2013,1.71,Middlesex,1170.001,"17,668",17.11,Open town meeting,TomH,PO #1635,Drocnoc,MA,MA-01742,usa
Holliston,01746,Town of Holliston,1724 Holliston Road,Holliston,MA,01746,US,617-724 1724,County of Middlesex,Established in 1724,172.01,172.02,172.03,172.04,172.05,172.06,172.07,172.08,172.09,172.1,172.11,172.12,172.13,172.14,172.15,172.16,172.17,172.18,172.19,172.2,6/21/2013,1.72,Middlesex,1171.001,"13,547",17.21,Open town meeting,CoreyM,PO #1724,Notsilloh,MA,MA-01746,usa
Hopedale,01747,Town of Hopedale,1886 Hopedale Road,Hopedale,MA,01747,US,617-886 1886,County of Worcester,Established in 1886,173.01,173.02,173.03,173.04,173.05,173.06,173.07,173.08,173.09,173.1,173.11,173.12,173.13,173.14,173.15,173.16,173.17,173.18,173.19,173.2,6/22/2013,1.73,Worcester,1172.001,"5,911",17.31,Open town meeting,SamS,PO #1886,Eladepoh,MA,MA-01747,usa
Hopkinton,01748,Town of Hopkinton,1715 Hopkinton Road,Hopkinton,MA,01748,US,617-715 1715,County of Middlesex,Established in 1715,174.01,174.02,174.03,174.04,174.05,174.06,174.07,174.08,174.09,174.1,174.11,174.12,174.13,174.14,174.15,174.16,174.17,174.18,174.19,174.2,6/23/2013,1.74,Middlesex,1173.001,"14,925",17.41,Open town meeting,ShawnR,PO #1715,Notnikpoh,MA,MA-01748,usa
Hudson,01749,Town of Hudson,1866 Hudson Road,Hudson,MA,01749,US,617-866 1866,County of Middlesex,Established in 1866,175.01,175.02,175.03,175.04,175.05,175.06,175.07,175.08,175.09,175.1,175.11,175.12,175.13,175.14,175.15,175.16,175.17,175.18,175.19,175.2,6/24/2013,1.75,Middlesex,1174.001,"19,063",17.51,Open town meeting,JamesR,PO #1866,Nosduh,MA,MA-01749,usa
Marlborough,01752,City of Marlborough,1660 Marlborough Road,Marlborough,MA,01752,US,617-660 1660,County of Middlesex,Established in 1660,176.01,176.02,176.03,176.04,176.05,176.06,176.07,176.08,176.09,176.1,176.11,176.12,176.13,176.14,176.15,176.16,176.17,176.18,176.19,176.2,6/25/2013,1.76,Middlesex,1175.001,"38,499",17.61,Mayor-council,TomH,PO #1660,Hguoroblram,MA,MA-01752,usa
Maynard,01754,Town of Maynard,1871 Maynard Road,Maynard,MA,01754,US,617-871 1871,County of Middlesex,Established in 1871,177.01,177.02,177.03,177.04,177.05,177.06,177.07,177.08,177.09,177.1,177.11,177.12,177.13,177.14,177.15,177.16,177.17,177.18,177.19,177.2,6/26/2013,1.77,Middlesex,1176.001,"10,106",17.71,Open town meeting,CoreyM,PO #1871,Dranyam,MA,MA-01754,usa
Mendon,01756,Town of Mendon,1667 Mendon Road,Mendon,MA,01756,US,617-667 1667,County of Worcester,Established in 1667,178.01,178.02,178.03,178.04,178.05,178.06,178.07,178.08,178.09,178.1,178.11,178.12,178.13,178.14,178.15,178.16,178.17,178.18,178.19,178.2,6/27/2013,1.78,Worcester,1177.001,"5,839",17.81,Open town meeting,SamS,PO #1667,Nodnem,MA,MA-01756,usa
Milford,01757,Town of Milford,1780 Milford Road,Milford,MA,01757,US,617-780 1780,County of Worcester,Established in 1780,179.01,179.02,179.03,179.04,179.05,179.06,179.07,179.08,179.09,179.1,179.11,179.12,179.13,179.14,179.15,179.16,179.17,179.18,179.19,179.2,6/28/2013,1.79,Worcester,1178.001,"27,999",17.91,Representative town meeting,ShawnR,PO #1780,Droflim,MA,MA-01757,usa
Natick,01760,Town of Natick,1781 Natick Road,Natick,MA,01760,US,617-781 1781,County of Middlesex,Established in 1781,180.01,180.02,180.03,180.04,180.05,180.06,180.07,180.08,180.09,180.1,180.11,180.12,180.13,180.14,180.15,180.16,180.17,180.18,180.19,180.2,6/29/2013,1.8,Middlesex,1179.001,"33,006",18.01,Representative town meeting,JamesR,PO #1781,Kcitan,MA,MA-01760,usa
Sherborn,01770,Town of Sherborn,1674 Sherborn Road,Sherborn,MA,01770,US,617-674 1674,County of Middlesex,Established in 1674,181.01,181.02,181.03,181.04,181.05,181.06,181.07,181.08,181.09,181.1,181.11,181.12,181.13,181.14,181.15,181.16,181.17,181.18,181.19,181.2,6/30/2013,1.81,Middlesex,1180.001,"4,119",18.11,Open town meeting,TomH,PO #1674,Nrobrehs,MA,MA-01770,usa
Southborough,01772,Town of Southborough,1727 Southborough Road,Southborough,MA,01772,US,617-727 1727,County of Worcester,Established in 1727,182.01,182.02,182.03,182.04,182.05,182.06,182.07,182.08,182.09,182.1,182.11,182.12,182.13,182.14,182.15,182.16,182.17,182.18,182.19,182.2,7/1/2013,1.82,Worcester,1181.001,"9,767",18.21,Open town meeting,CoreyM,PO #1727,Hguorobhtuos,MA,MA-01772,usa
Lincoln,01773,Town of Lincoln,1754 Lincoln Road,Lincoln,MA,01773,US,617-754 1754,County of Middlesex,Established in 1754,183.01,183.02,183.03,183.04,183.05,183.06,183.07,183.08,183.09,183.1,183.11,183.12,183.13,183.14,183.15,183.16,183.17,183.18,183.19,183.2,7/2/2013,1.83,Middlesex,1182.001,"6,362",18.31,Open town meeting,SamS,PO #1754,Nlocnil,MA,MA-01773,usa
Stow,01775,Town of Stow,1683 Stow Road,Stow,MA,01775,US,617-683 1683,County of Middlesex,Established in 1683,184.01,184.02,184.03,184.04,184.05,184.06,184.07,184.08,184.09,184.1,184.11,184.12,184.13,184.14,184.15,184.16,184.17,184.18,184.19,184.2,7/3/2013,1.84,Middlesex,1183.001,"6,590",18.41,Open town meeting,ShawnR,PO #1683,Wots,MA,MA-01775,usa
Sudbury,01776,Town of Sudbury,1639 Sudbury Road,Sudbury,MA,01776,US,617-639 1639,County of Middlesex,Established in 1639,185.01,185.02,185.03,185.04,185.05,185.06,185.07,185.08,185.09,185.1,185.11,185.12,185.13,185.14,185.15,185.16,185.17,185.18,185.19,185.2,7/4/2013,1.85,Middlesex,1184.001,"17,659",18.51,Open town meeting,JamesR,PO #1639,Yrubdus,MA,MA-01776,usa
Wayland,01778,Town of Wayland,1780 Wayland Road,Wayland,MA,01778,US,617-780 1780,County of Middlesex,Established in 1780,186.01,186.02,186.03,186.04,186.05,186.06,186.07,186.08,186.09,186.1,186.11,186.12,186.13,186.14,186.15,186.16,186.17,186.18,186.19,186.2,7/5/2013,1.86,Middlesex,1185.001,"12,994",18.61,Open town meeting,TomH,PO #1780,Dnalyaw,MA,MA-01778,usa
Woburn,01801,City of Woburn,1642 Woburn Road,Woburn,MA,01801,US,617-642 1642,County of Middlesex,Established in 1642,187.01,187.02,187.03,187.04,187.05,187.06,187.07,187.08,187.09,187.1,187.11,187.12,187.13,187.14,187.15,187.16,187.17,187.18,187.19,187.2,7/6/2013,1.87,Middlesex,1186.001,"38,120",18.71,Mayor-aldermen,CoreyM,PO #1642,Nrubow,MA,MA-01801,usa
Burlington,01803,Town of Burlington,1799 Burlington Road,Burlington,MA,01803,US,617-799 1799,County of Middlesex,Established in 1799,188.01,188.02,188.03,188.04,188.05,188.06,188.07,188.08,188.09,188.1,188.11,188.12,188.13,188.14,188.15,188.16,188.17,188.18,188.19,188.2,7/7/2013,1.88,Middlesex,1187.001,"24,498",18.81,Representative town meeting,SamS,PO #1799,Notgnilrub,MA,MA-01803,usa
Andover,01810,Town of Andover,1646 Andover Road,Andover,MA,01810,US,617-646 1646,County of Essex,Established in 1646,189.01,189.02,189.03,189.04,189.05,189.06,189.07,189.08,189.09,189.1,189.11,189.12,189.13,189.14,189.15,189.16,189.17,189.18,189.19,189.2,7/8/2013,1.89,Essex,1188.001,"33,201",18.91,Open town meeting,ShawnR,PO #1646,Revodna,MA,MA-01810,usa
Billerica,01821,Town of Billerica,1655 Billerica Road,Billerica,MA,01821,US,617-655 1655,County of Middlesex,Established in 1655,190.01,190.02,190.03,190.04,190.05,190.06,190.07,190.08,190.09,190.1,190.11,190.12,190.13,190.14,190.15,190.16,190.17,190.18,190.19,190.2,7/9/2013,1.9,Middlesex,1189.001,"40,243",19.01,Representative town meeting,JamesR,PO #1655,Acirellib,MA,MA-01821,usa
Chelmsford,01824,Town of Chelmsford,1655 Chelmsford Road,Chelmsford,MA,01824,US,617-655 1655,County of Middlesex,Established in 1655,191.01,191.02,191.03,191.04,191.05,191.06,191.07,191.08,191.09,191.1,191.11,191.12,191.13,191.14,191.15,191.16,191.17,191.18,191.19,191.2,7/10/2013,1.91,Middlesex,1190.001,"33,802",19.11,Representative town meeting,TomH,PO #1655,Drofsmlehc,MA,MA-01824,usa
Dracut,01826,Town of Dracut,1701 Dracut Road,Dracut,MA,01826,US,617-701 1701,County of Middlesex,Established in 1701,192.01,192.02,192.03,192.04,192.05,192.06,192.07,192.08,192.09,192.1,192.11,192.12,192.13,192.14,192.15,192.16,192.17,192.18,192.19,192.2,7/11/2013,1.92,Middlesex,1191.001,"29,457",19.21,Open town meeting,CoreyM,PO #1701,Tucard,MA,MA-01826,usa
Dunstable,01827,Town of Dunstable,1673 Dunstable Road,Dunstable,MA,01827,US,617-673 1673,County of Middlesex,Established in 1673,193.01,193.02,193.03,193.04,193.05,193.06,193.07,193.08,193.09,193.1,193.11,193.12,193.13,193.14,193.15,193.16,193.17,193.18,193.19,193.2,7/12/2013,1.93,Middlesex,1192.001,"3,179",19.31,Open town meeting,SamS,PO #1673,Elbatsnud,MA,MA-01827,usa
Haverhill,01830,City of Haverhill,1641 Haverhill Road,Haverhill,MA,01830,US,617-641 1641,County of Essex,Established in 1641,194.01,194.02,194.03,194.04,194.05,194.06,194.07,194.08,194.09,194.1,194.11,194.12,194.13,194.14,194.15,194.16,194.17,194.18,194.19,194.2,7/13/2013,1.94,Essex,1193.001,"60,879",19.41,Mayor-council,ShawnR,PO #1641,Llihrevah,MA,MA-01830,usa
Georgetown,01833,Town of Georgetown,1838 Georgetown Road,Georgetown,MA,01833,US,617-838 1838,County of Essex,Established in 1838,195.01,195.02,195.03,195.04,195.05,195.06,195.07,195.08,195.09,195.1,195.11,195.12,195.13,195.14,195.15,195.16,195.17,195.18,195.19,195.2,7/14/2013,1.95,Essex,1194.001,"8,183",19.51,Open town meeting,JamesR,PO #1838,Nwotegroeg,MA,MA-01833,usa
Groveland,01834,Town of Groveland,1850 Groveland Road,Groveland,MA,01834,US,617-850 1850,County of Essex,Established in 1850,196.01,196.02,196.03,196.04,196.05,196.06,196.07,196.08,196.09,196.1,196.11,196.12,196.13,196.14,196.15,196.16,196.17,196.18,196.19,196.2,7/15/2013,1.96,Essex,1195.001,"6,459",19.61,Open town meeting,TomH,PO #1850,Dnalevorg,MA,MA-01834,usa
Lawrence,01840,City of Lawrence,1847 Lawrence Road,Lawrence,MA,01840,US,617-847 1847,County of Essex,Established in 1847,197.01,197.02,197.03,197.04,197.05,197.06,197.07,197.08,197.09,197.1,197.11,197.12,197.13,197.14,197.15,197.16,197.17,197.18,197.19,197.2,7/16/2013,1.97,Essex,1196.001,"76,377",19.71,Mayor-council,CoreyM,PO #1847,Ecnerwal,MA,MA-01840,usa
Methuen,01844,City of Methuen,1725 Methuen Road,Methuen,MA,01844,US,617-725 1725,County of Essex,Established in 1725,198.01,198.02,198.03,198.04,198.05,198.06,198.07,198.08,198.09,198.1,198.11,198.12,198.13,198.14,198.15,198.16,198.17,198.18,198.19,198.2,7/17/2013,1.98,Essex,1197.001,"47,255",19.81,Mayor-council,SamS,PO #1725,Neuhtem,MA,MA-01844,usa
North.Andover,01845,Town of North Andover,1855 North Andover Road,North Andover,MA,01845,US,617-855 1855,County of Essex,Established in 1855,199.01,199.02,199.03,199.04,199.05,199.06,199.07,199.08,199.09,199.1,199.11,199.12,199.13,199.14,199.15,199.16,199.17,199.18,199.19,199.2,7/18/2013,1.99,Essex,1198.001,"28,352",19.91,Open town meeting,ShawnR,PO #1855,Revodna Htron,MA,MA-01845,usa
Lowell,01850,City of Lowell,1826 Lowell Road,Lowell,MA,01850,US,617-826 1826,County of Middlesex,Established in 1826,200.01,200.02,200.03,200.04,200.05,200.06,200.07,200.08,200.09,200.1,200.11,200.12,200.13,200.14,200.15,200.16,200.17,200.18,200.19,200.2,7/19/2013,2,Middlesex,1199.001,"106,519",20.01,Mayor-manager-council,JamesR,PO #1826,Llewol,MA,MA-01850,usa
Merrimac,01860,Town of Merrimac,1876 Merrimac Road,Merrimac,MA,01860,US,617-876 1876,County of Essex,Established in 1876,201.01,201.02,201.03,201.04,201.05,201.06,201.07,201.08,201.09,201.1,201.11,201.12,201.13,201.14,201.15,201.16,201.17,201.18,201.19,201.2,7/20/2013,2.01,Essex,1200.001,"6,338",20.11,Open town meeting,TomH,PO #1876,Camirrem,MA,MA-01860,usa
North.Reading,01864,Town of North Reading,1853 North Reading Road,North Reading,MA,01864,US,617-853 1853,County of Middlesex,Established in 1853,202.01,202.02,202.03,202.04,202.05,202.06,202.07,202.08,202.09,202.1,202.11,202.12,202.13,202.14,202.15,202.16,202.17,202.18,202.19,202.2,7/21/2013,2.02,Middlesex,1201.001,"14,892",20.21,Open town meeting,CoreyM,PO #1853,Gnidaer Htron,MA,MA-01864,usa
Reading,01867,Town of Reading,1644 Reading Road,Reading,MA,01867,US,617-644 1644,County of Middlesex,Established in 1644,203.01,203.02,203.03,203.04,203.05,203.06,203.07,203.08,203.09,203.1,203.11,203.12,203.13,203.14,203.15,203.16,203.17,203.18,203.19,203.2,7/22/2013,2.03,Middlesex,1202.001,"24,747",20.31,Representative town meeting,SamS,PO #1644,Gnidaer,MA,MA-01867,usa
Tewksbury,01876,Town of Tewksbury,1734 Tewksbury Road,Tewksbury,MA,01876,US,617-734 1734,County of Middlesex,Established in 1734,204.01,204.02,204.03,204.04,204.05,204.06,204.07,204.08,204.09,204.1,204.11,204.12,204.13,204.14,204.15,204.16,204.17,204.18,204.19,204.2,7/23/2013,2.04,Middlesex,1203.001,"28,961",20.41,Open town meeting,ShawnR,PO #1734,Yrubskwet,MA,MA-01876,usa
Tyngsborough,01879,Town of Tyngsborough,1809 Tyngsborough Road,Tyngsborough,MA,01879,US,617-809 1809,County of Middlesex,Established in 1809,205.01,205.02,205.03,205.04,205.05,205.06,205.07,205.08,205.09,205.1,205.11,205.12,205.13,205.14,205.15,205.16,205.17,205.18,205.19,205.2,7/24/2013,2.05,Middlesex,1204.001,"11,292",20.51,Open town meeting,JamesR,PO #1809,Hguorobsgnyt,MA,MA-01879,usa
Wakefield,01880,Town of Wakefield,1812 Wakefield Road,Wakefield,MA,01880,US,617-812 1812,County of Middlesex,Established in 1812,206.01,206.02,206.03,206.04,206.05,206.06,206.07,206.08,206.09,206.1,206.11,206.12,206.13,206.14,206.15,206.16,206.17,206.18,206.19,206.2,7/25/2013,2.06,Middlesex,1205.001,"24,932",20.61,Open town meeting,TomH,PO #1812,Dleifekaw,MA,MA-01880,usa
Westford,01886,Town of Westford,1729 Westford Road,Westford,MA,01886,US,617-729 1729,County of Middlesex,Established in 1729,207.01,207.02,207.03,207.04,207.05,207.06,207.07,207.08,207.09,207.1,207.11,207.12,207.13,207.14,207.15,207.16,207.17,207.18,207.19,207.2,7/26/2013,2.07,Middlesex,1206.001,"21,951",20.71,Open town meeting,CoreyM,PO #1729,Droftsew,MA,MA-01886,usa
Wilmington,01887,Town of Wilmington,1730 Wilmington Road,Wilmington,MA,01887,US,617-730 1730,County of Middlesex,Established in 1730,208.01,208.02,208.03,208.04,208.05,208.06,208.07,208.08,208.09,208.1,208.11,208.12,208.13,208.14,208.15,208.16,208.17,208.18,208.19,208.2,7/27/2013,2.08,Middlesex,1207.001,"22,325",20.81,Open town meeting,SamS,PO #1730,Notgnimliw,MA,MA-01887,usa
Winchester,01890,Town of Winchester,1850 Winchester Road,Winchester,MA,01890,US,617-850 1850,County of Middlesex,Established in 1850,209.01,209.02,209.03,209.04,209.05,209.06,209.07,209.08,209.09,209.1,209.11,209.12,209.13,209.14,209.15,209.16,209.17,209.18,209.19,209.2,7/28/2013,2.09,Middlesex,1208.001,"21,374",20.91,Representative town meeting,ShawnR,PO #1850,Retsehcniw,MA,MA-01890,usa
Lynn,01901,City of Lynn,1629 Lynn Road,Lynn,MA,01901,US,617-629 1629,County of Essex,Established in 1629,210.01,210.02,210.03,210.04,210.05,210.06,210.07,210.08,210.09,210.1,210.11,210.12,210.13,210.14,210.15,210.16,210.17,210.18,210.19,210.2,7/29/2013,2.1,Essex,1209.001,"90,329",21.01,Mayor-council,JamesR,PO #1629,Nnyl,MA,MA-01901,usa
Saugus,01906,Town of Saugus,1815 Saugus Road,Saugus,MA,01906,US,617-815 1815,County of Essex,Established in 1815,211.01,211.02,211.03,211.04,211.05,211.06,211.07,211.08,211.09,211.1,211.11,211.12,211.13,211.14,211.15,211.16,211.17,211.18,211.19,211.2,7/30/2013,2.11,Essex,1210.001,"26,628",21.11,Representative town meeting,TomH,PO #1815,Suguas,MA,MA-01906,usa
Swampscott,01907,Town of Swampscott,1852 Swampscott Road,Swampscott,MA,01907,US,617-852 1852,County of Essex,Established in 1852,212.01,212.02,212.03,212.04,212.05,212.06,212.07,212.08,212.09,212.1,212.11,212.12,212.13,212.14,212.15,212.16,212.17,212.18,212.19,212.2,7/31/2013,2.12,Essex,1211.001,"13,787",21.21,Representative town meeting,CoreyM,PO #1852,Ttocspmaws,MA,MA-01907,usa
Nahant,01908,Town of Nahant,1853 Nahant Road,Nahant,MA,01908,US,617-853 1853,County of Essex,Established in 1853,213.01,213.02,213.03,213.04,213.05,213.06,213.07,213.08,213.09,213.1,213.11,213.12,213.13,213.14,213.15,213.16,213.17,213.18,213.19,213.2,8/1/2013,2.13,Essex,1212.001,"3,410",21.31,Open town meeting,SamS,PO #1853,Tnahan,MA,MA-01908,usa
Amesbury,01913,City of Amesbury,1668 Amesbury Road,Amesbury,MA,01913,US,617-668 1668,County of Essex,Established in 1668,214.01,214.02,214.03,214.04,214.05,214.06,214.07,214.08,214.09,214.1,214.11,214.12,214.13,214.14,214.15,214.16,214.17,214.18,214.19,214.2,8/2/2013,2.14,Essex,1213.001,"16,283",21.41,Mayor-council,ShawnR,PO #1668,Yrubsema,MA,MA-01913,usa
Boxford,01921,Town of Boxford,1685 Boxford Road,Boxford,MA,01921,US,617-685 1685,County of Essex,Established in 1685,216.01,216.02,216.03,216.04,216.05,216.06,216.07,216.08,216.09,216.1,216.11,216.12,216.13,216.14,216.15,216.16,216.17,216.18,216.19,216.2,8/4/2013,2.16,Essex,1215.001,"7,965",21.61,Open town meeting,TomH,PO #1685,Drofxob,MA,MA-01921,usa
Danvers,01923,Town of Danvers,1775 Danvers Road,Danvers,MA,01923,US,617-775 1775,County of Essex,Established in 1775,217.01,217.02,217.03,217.04,217.05,217.06,217.07,217.08,217.09,217.1,217.11,217.12,217.13,217.14,217.15,217.16,217.17,217.18,217.19,217.2,8/5/2013,2.17,Essex,1216.001,"26,493",21.71,Representative town meeting,CoreyM,PO #1775,Srevnad,MA,MA-01923,usa
Essex,01929,Town of Essex,1819 Essex Road,Essex,MA,01929,US,617-819 1819,County of Essex,Established in 1819,218.01,218.02,218.03,218.04,218.05,218.06,218.07,218.08,218.09,218.1,218.11,218.12,218.13,218.14,218.15,218.16,218.17,218.18,218.19,218.2,8/6/2013,2.18,Essex,1217.001,"3,504",21.81,Open town meeting,SamS,PO #1819,Xesse,MA,MA-01929,usa
Gloucester,01930,City of Gloucester,1642 Gloucester Road,Gloucester,MA,01930,US,617-642 1642,County of Essex,Established in 1642,219.01,219.02,219.03,219.04,219.05,219.06,219.07,219.08,219.09,219.1,219.11,219.12,219.13,219.14,219.15,219.16,219.17,219.18,219.19,219.2,8/7/2013,2.19,Essex,1218.001,"28,789",21.91,Mayor-council,ShawnR,PO #1642,Retsecuolg,MA,MA-01930,usa
Hamilton,01936,Town of Hamilton,1793 Hamilton Road,Hamilton,MA,01936,US,617-793 1793,County of Essex,Established in 1793,220.01,220.02,220.03,220.04,220.05,220.06,220.07,220.08,220.09,220.1,220.11,220.12,220.13,220.14,220.15,220.16,220.17,220.18,220.19,220.2,8/8/2013,2.2,Essex,1219.001,"7,764",22.01,Open town meeting,JamesR,PO #1793,Notlimah,MA,MA-01936,usa
Ipswich,01938,Town of Ipswich,1634 Ipswich Road,Ipswich,MA,01938,US,617-634 1634,County of Essex,Established in 1634,221.01,221.02,221.03,221.04,221.05,221.06,221.07,221.08,221.09,221.1,221.11,221.12,221.13,221.14,221.15,221.16,221.17,221.18,221.19,221.2,8/9/2013,2.21,Essex,1220.001,"13,175",22.11,Open town meeting,TomH,PO #1634,Hciwspi,MA,MA-01938,usa
Lynnfield,01940,Town of Lynnfield,1814 Lynnfield Road,Lynnfield,MA,01940,US,617-814 1814,County of Essex,Established in 1814,222.01,222.02,222.03,222.04,222.05,222.06,222.07,222.08,222.09,222.1,222.11,222.12,222.13,222.14,222.15,222.16,222.17,222.18,222.19,222.2,8/10/2013,2.22,Essex,1221.001,"11,596",22.21,Open town meeting,CoreyM,PO #1814,Dleifnnyl,MA,MA-01940,usa
Manchester-by-the-Sea,01944,Town of Manchester-by-the-Sea,1645 Manchester-by-the-Sea Road,Manchester-by-the-Sea,MA,01944,US,617-645 1645,County of Essex,Established in 1645,223.01,223.02,223.03,223.04,223.05,223.06,223.07,223.08,223.09,223.1,223.11,223.12,223.13,223.14,223.15,223.16,223.17,223.18,223.19,223.2,8/11/2013,2.23,Essex,1222.001,"5,136",22.31,Open town meeting,SamS,PO #1645,Aes-Eht-Yb-Retsehcnam,MA,MA-01944,usa
Marblehead,01945,Town of Marblehead,1649 Marblehead Road,Marblehead,MA,01945,US,617-649 1649,County of Essex,Established in 1649,224.01,224.02,224.03,224.04,224.05,224.06,224.07,224.08,224.09,224.1,224.11,224.12,224.13,224.14,224.15,224.16,224.17,224.18,224.19,224.2,8/12/2013,2.24,Essex,1223.001,"19,808",22.41,Open town meeting,ShawnR,PO #1649,Daehelbram,MA,MA-01945,usa
Middleton,01949,Town of Middleton,1728 Middleton Road,Middleton,MA,01949,US,617-728 1728,County of Essex,Established in 1728,225.01,225.02,225.03,225.04,225.05,225.06,225.07,225.08,225.09,225.1,225.11,225.12,225.13,225.14,225.15,225.16,225.17,225.18,225.19,225.2,8/13/2013,2.25,Essex,1224.001,"8,987",22.51,Open town meeting,JamesR,PO #1728,Notelddim,MA,MA-01949,usa
Newburyport,01950,City of Newburyport,1764 Newburyport Road,Newburyport,MA,01950,US,617-764 1764,County of Essex,Established in 1764,226.01,226.02,226.03,226.04,226.05,226.06,226.07,226.08,226.09,226.1,226.11,226.12,226.13,226.14,226.15,226.16,226.17,226.18,226.19,226.2,8/14/2013,2.26,Essex,1225.001,"17,416",22.61,Mayor-council,TomH,PO #1764,Tropyrubwen,MA,MA-01950,usa
Newbury,01951,Town of Newbury,1635 Newbury Road,Newbury,MA,01951,US,617-635 1635,County of Essex,Established in 1635,227.01,227.02,227.03,227.04,227.05,227.06,227.07,227.08,227.09,227.1,227.11,227.12,227.13,227.14,227.15,227.16,227.17,227.18,227.19,227.2,8/15/2013,2.27,Essex,1226.001,"6,666",22.71,Open town meeting,CoreyM,PO #1635,Yrubwen,MA,MA-01951,usa
Salisbury,01952,Town of Salisbury,1639 Salisbury Road,Salisbury,MA,01952,US,617-639 1639,County of Essex,Established in 1639,228.01,228.02,228.03,228.04,228.05,228.06,228.07,228.08,228.09,228.1,228.11,228.12,228.13,228.14,228.15,228.16,228.17,228.18,228.19,228.2,8/16/2013,2.28,Essex,1227.001,"8,283",22.81,Open town meeting,SamS,PO #1639,Yrubsilas,MA,MA-01952,usa
Peabody,01960,City of Peabody,1868 Peabody Road,Peabody,MA,01960,US,617-868 1868,County of Essex,Established in 1868,229.01,229.02,229.03,229.04,229.05,229.06,229.07,229.08,229.09,229.1,229.11,229.12,229.13,229.14,229.15,229.16,229.17,229.18,229.19,229.2,8/17/2013,2.29,Essex,1228.001,"51,251",22.91,Mayor-council,ShawnR,PO #1868,Ydobaep,MA,MA-01960,usa
Rockport,01966,Town of Rockport,1840 Rockport Road,Rockport,MA,01966,US,617-840 1840,County of Essex,Established in 1840,230.01,230.02,230.03,230.04,230.05,230.06,230.07,230.08,230.09,230.1,230.11,230.12,230.13,230.14,230.15,230.16,230.17,230.18,230.19,230.2,8/18/2013,2.3,Essex,1229.001,"6,952",23.01,Open town meeting,JamesR,PO #1840,Tropkcor,MA,MA-01966,usa
Rowley,01969,Town of Rowley,1639 Rowley Road,Rowley,MA,01969,US,617-639 1639,County of Essex,Established in 1639,231.01,231.02,231.03,231.04,231.05,231.06,231.07,231.08,231.09,231.1,231.11,231.12,231.13,231.14,231.15,231.16,231.17,231.18,231.19,231.2,8/19/2013,2.31,Essex,1230.001,"5,856",23.11,Open town meeting,TomH,PO #1639,Yelwor,MA,MA-01969,usa
Salem,01970,City of Salem,1626 Salem Road,Salem,MA,01970,US,617-626 1626,County of Essex,Established in 1626,232.01,232.02,232.03,232.04,232.05,232.06,232.07,232.08,232.09,232.1,232.11,232.12,232.13,232.14,232.15,232.16,232.17,232.18,232.19,232.2,8/20/2013,2.32,Essex,1231.001,"41,340",23.21,Mayor-council,CoreyM,PO #1626,Melas,MA,MA-01970,usa
Topsfield,01983,Town of Topsfield,1650 Topsfield Road,Topsfield,MA,01983,US,617-650 1650,County of Essex,Established in 1650,233.01,233.02,233.03,233.04,233.05,233.06,233.07,233.08,233.09,233.1,233.11,233.12,233.13,233.14,233.15,233.16,233.17,233.18,233.19,233.2,8/21/2013,2.33,Essex,1232.001,"6,085",23.31,Open town meeting,SamS,PO #1650,Dleifspot,MA,MA-01983,usa
Wenham,01984,Town of Wenham,1643 Wenham Road,Wenham,MA,01984,US,617-643 1643,County of Essex,Established in 1643,234.01,234.02,234.03,234.04,234.05,234.06,234.07,234.08,234.09,234.1,234.11,234.12,234.13,234.14,234.15,234.16,234.17,234.18,234.19,234.2,8/22/2013,2.34,Essex,1233.001,"4,875",23.41,Open town meeting,ShawnR,PO #1643,Mahnew,MA,MA-01984,usa
West.Newbury,01985,Town of West Newbury,1819 West Newbury Road,West Newbury,MA,01985,US,617-819 1819,County of Essex,Established in 1819,235.01,235.02,235.03,235.04,235.05,235.06,235.07,235.08,235.09,235.1,235.11,235.12,235.13,235.14,235.15,235.16,235.17,235.18,235.19,235.2,8/23/2013,2.35,Essex,1234.001,"4,235",23.51,Open town meeting,JamesR,PO #1819,Yrubwen Tsew,MA,MA-01985,usa
Bellingham,02019,Town of Bellingham,1719 Bellingham Road,Bellingham,MA,02019,US,617-719 1719,County of Norfolk,Established in 1719,236.01,236.02,236.03,236.04,236.05,236.06,236.07,236.08,236.09,236.1,236.11,236.12,236.13,236.14,236.15,236.16,236.17,236.18,236.19,236.2,8/24/2013,2.36,Norfolk,1235.001,"16,332",23.61,Open town meeting,TomH,PO #1719,Mahgnilleb,MA,MA-02019,usa
Canton,02021,Town of Canton,1797 Canton Road,Canton,MA,02021,US,617-797 1797,County of Norfolk,Established in 1797,237.01,237.02,237.03,237.04,237.05,237.06,237.07,237.08,237.09,237.1,237.11,237.12,237.13,237.14,237.15,237.16,237.17,237.18,237.19,237.2,8/25/2013,2.37,Norfolk,1236.001,"21,561",23.71,Open town meeting,CoreyM,PO #1797,Notnac,MA,MA-02021,usa
Cohasset,02025,Town of Cohasset,1775 Cohasset Road,Cohasset,MA,02025,US,617-775 1775,County of Norfolk,Established in 1775,238.01,238.02,238.03,238.04,238.05,238.06,238.07,238.08,238.09,238.1,238.11,238.12,238.13,238.14,238.15,238.16,238.17,238.18,238.19,238.2,8/26/2013,2.38,Norfolk,1237.001,"7,542",23.81,Open town meeting,SamS,PO #1775,Tessahoc,MA,MA-02025,usa
Dedham,02026,Town of Dedham,1636 Dedham Road,Dedham,MA,02026,US,617-636 1636,County of Norfolk,Established in 1636,239.01,239.02,239.03,239.04,239.05,239.06,239.07,239.08,239.09,239.1,239.11,239.12,239.13,239.14,239.15,239.16,239.17,239.18,239.19,239.2,8/27/2013,2.39,Norfolk,1238.001,"24,729",23.91,Representative town meeting,ShawnR,PO #1636,Mahded,MA,MA-02026,usa
Dover,02030,Town of Dover,1836 Dover Road,Dover,MA,02030,US,617-836 1836,County of Norfolk,Established in 1836,240.01,240.02,240.03,240.04,240.05,240.06,240.07,240.08,240.09,240.1,240.11,240.12,240.13,240.14,240.15,240.16,240.17,240.18,240.19,240.2,8/28/2013,2.4,Norfolk,1239.001,"5,589",24.01,Open town meeting,JamesR,PO #1836,Revod,MA,MA-02030,usa
Foxborough,02035,Town of Foxborough,1778 Foxborough Road,Foxborough,MA,02035,US,617-778 1778,County of Norfolk,Established in 1778,241.01,241.02,241.03,241.04,241.05,241.06,241.07,241.08,241.09,241.1,241.11,241.12,241.13,241.14,241.15,241.16,241.17,241.18,241.19,241.2,8/29/2013,2.41,Norfolk,1240.001,"16,865",24.11,Open town meeting,TomH,PO #1778,Hguorobxof,MA,MA-02035,usa
Franklin,02038,City of Franklin,1778 Franklin Road,Franklin,MA,02038,US,617-778 1778,County of Norfolk,Established in 1778,242.01,242.02,242.03,242.04,242.05,242.06,242.07,242.08,242.09,242.1,242.11,242.12,242.13,242.14,242.15,242.16,242.17,242.18,242.19,242.2,8/30/2013,2.42,Norfolk,1241.001,"31,635",24.21,Council-administrator,CoreyM,PO #1778,Nilknarf,MA,MA-02038,usa
Hingham,02043,Town of Hingham,1635 Hingham Road,Hingham,MA,02043,US,617-635 1635,County of Plymouth,Established in 1635,243.01,243.02,243.03,243.04,243.05,243.06,243.07,243.08,243.09,243.1,243.11,243.12,243.13,243.14,243.15,243.16,243.17,243.18,243.19,243.2,8/31/2013,2.43,Plymouth,1242.001,"22,157",24.31,Open town meeting,SamS,PO #1635,Mahgnih,MA,MA-02043,usa
Hull,02045,Town of Hull,1644 Hull Road,Hull,MA,02045,US,617-644 1644,County of Plymouth,Established in 1644,244.01,244.02,244.03,244.04,244.05,244.06,244.07,244.08,244.09,244.1,244.11,244.12,244.13,244.14,244.15,244.16,244.17,244.18,244.19,244.2,9/1/2013,2.44,Plymouth,1243.001,"10,293",24.41,Open town meeting,ShawnR,PO #1644,Lluh,MA,MA-02045,usa
Mansfield,02048,Town of Mansfield,1775 Mansfield Road,Mansfield,MA,02048,US,617-775 1775,County of Bristol,Established in 1775,245.01,245.02,245.03,245.04,245.05,245.06,245.07,245.08,245.09,245.1,245.11,245.12,245.13,245.14,245.15,245.16,245.17,245.18,245.19,245.2,9/2/2013,2.45,Bristol,1244.001,"23,184",24.51,Open town meeting,JamesR,PO #1775,Dleifsnam,MA,MA-02048,usa
Marshfield,02050,Town of Marshfield,1640 Marshfield Road,Marshfield,MA,02050,US,617-640 1640,County of Plymouth,Established in 1640,246.01,246.02,246.03,246.04,246.05,246.06,246.07,246.08,246.09,246.1,246.11,246.12,246.13,246.14,246.15,246.16,246.17,246.18,246.19,246.2,9/3/2013,2.46,Plymouth,1245.001,"25,132",24.61,Open town meeting,TomH,PO #1640,Dleifhsram,MA,MA-02050,usa
Medfield,02052,Town of Medfield,1651 Medfield Road,Medfield,MA,02052,US,617-651 1651,County of Norfolk,Established in 1651,247.01,247.02,247.03,247.04,247.05,247.06,247.07,247.08,247.09,247.1,247.11,247.12,247.13,247.14,247.15,247.16,247.17,247.18,247.19,247.2,9/4/2013,2.47,Norfolk,1246.001,"12,024",24.71,Open town meeting,CoreyM,PO #1651,Dleifdem,MA,MA-02052,usa
Medway,02053,Town of Medway,1713 Medway Road,Medway,MA,02053,US,617-713 1713,County of Norfolk,Established in 1713,248.01,248.02,248.03,248.04,248.05,248.06,248.07,248.08,248.09,248.1,248.11,248.12,248.13,248.14,248.15,248.16,248.17,248.18,248.19,248.2,9/5/2013,2.48,Norfolk,1247.001,"12,752",24.81,Open town meeting,SamS,PO #1713,Yawdem,MA,MA-02053,usa
Millis,02054,Town of Millis,1885 Millis Road,Millis,MA,02054,US,617-885 1885,County of Norfolk,Established in 1885,249.01,249.02,249.03,249.04,249.05,249.06,249.07,249.08,249.09,249.1,249.11,249.12,249.13,249.14,249.15,249.16,249.17,249.18,249.19,249.2,9/6/2013,2.49,Norfolk,1248.001,"7,891",24.91,Open town meeting,ShawnR,PO #1885,Sillim,MA,MA-02054,usa
Norfolk,02056,Town of Norfolk,1870 Norfolk Road,Norfolk,MA,02056,US,617-870 1870,County of Norfolk,Established in 1870,250.01,250.02,250.03,250.04,250.05,250.06,250.07,250.08,250.09,250.1,250.11,250.12,250.13,250.14,250.15,250.16,250.17,250.18,250.19,250.2,9/7/2013,2.5,Norfolk,1249.001,"11,227",25.01,Open town meeting,JamesR,PO #1870,Klofron,MA,MA-02056,usa
Norwell,02061,Town of Norwell,1849 Norwell Road,Norwell,MA,02061,US,617-849 1849,County of Plymouth,Established in 1849,251.01,251.02,251.03,251.04,251.05,251.06,251.07,251.08,251.09,251.1,251.11,251.12,251.13,251.14,251.15,251.16,251.17,251.18,251.19,251.2,9/8/2013,2.51,Plymouth,1250.001,"10,506",25.11,Open town meeting,TomH,PO #1849,Llewron,MA,MA-02061,usa
Norwood,02062,Town of Norwood,1872 Norwood Road,Norwood,MA,02062,US,617-872 1872,County of Norfolk,Established in 1872,252.01,252.02,252.03,252.04,252.05,252.06,252.07,252.08,252.09,252.1,252.11,252.12,252.13,252.14,252.15,252.16,252.17,252.18,252.19,252.2,9/9/2013,2.52,Norfolk,1251.001,"28,602",25.21,Representative town meeting,CoreyM,PO #1872,Doowron,MA,MA-02062,usa
Scituate,02066,Town of Scituate,1636 Scituate Road,Scituate,MA,02066,US,617-636 1636,County of Plymouth,Established in 1636,253.01,253.02,253.03,253.04,253.05,253.06,253.07,253.08,253.09,253.1,253.11,253.12,253.13,253.14,253.15,253.16,253.17,253.18,253.19,253.2,9/10/2013,2.53,Plymouth,1252.001,"18,133",25.31,Open town meeting,SamS,PO #1636,Etautics,MA,MA-02066,usa
Sharon,02067,Town of Sharon,1775 Sharon Road,Sharon,MA,02067,US,617-775 1775,County of Norfolk,Established in 1775,254.01,254.02,254.03,254.04,254.05,254.06,254.07,254.08,254.09,254.1,254.11,254.12,254.13,254.14,254.15,254.16,254.17,254.18,254.19,254.2,9/11/2013,2.54,Norfolk,1253.001,"17,612",25.41,Open town meeting,ShawnR,PO #1775,Norahs,MA,MA-02067,usa
Stoughton,02072,Town of Stoughton,1726 Stoughton Road,Stoughton,MA,02072,US,617-726 1726,County of Norfolk,Established in 1726,255.01,255.02,255.03,255.04,255.05,255.06,255.07,255.08,255.09,255.1,255.11,255.12,255.13,255.14,255.15,255.16,255.17,255.18,255.19,255.2,9/12/2013,2.55,Norfolk,1254.001,"26,962",25.51,Representative town meeting,JamesR,PO #1726,Nothguots,MA,MA-02072,usa
Walpole,02081,Town of Walpole,1724 Walpole Road,Walpole,MA,02081,US,617-724 1724,County of Norfolk,Established in 1724,256.01,256.02,256.03,256.04,256.05,256.06,256.07,256.08,256.09,256.1,256.11,256.12,256.13,256.14,256.15,256.16,256.17,256.18,256.19,256.2,9/13/2013,2.56,Norfolk,1255.001,"24,070",25.61,Representative town meeting,TomH,PO #1724,Eloplaw,MA,MA-02081,usa
Westwood,02090,Town of Westwood,1897 Westwood Road,Westwood,MA,02090,US,617-897 1897,County of Norfolk,Established in 1897,257.01,257.02,257.03,257.04,257.05,257.06,257.07,257.08,257.09,257.1,257.11,257.12,257.13,257.14,257.15,257.16,257.17,257.18,257.19,257.2,9/14/2013,2.57,Norfolk,1256.001,"14,618",25.71,Open town meeting,CoreyM,PO #1897,Doowtsew,MA,MA-02090,usa
Wrentham,02093,Town of Wrentham,1673 Wrentham Road,Wrentham,MA,02093,US,617-673 1673,County of Norfolk,Established in 1673,258.01,258.02,258.03,258.04,258.05,258.06,258.07,258.08,258.09,258.1,258.11,258.12,258.13,258.14,258.15,258.16,258.17,258.18,258.19,258.2,9/15/2013,2.58,Norfolk,1257.001,"10,955",25.81,Open town meeting,SamS,PO #1673,Mahtnerw,MA,MA-02093,usa
Boston,02108,City of Boston,1630 Boston Road,Boston,MA,02108,US,617-630 1630,County of Suffolk,Established in 1630,259.01,259.02,259.03,259.04,259.05,259.06,259.07,259.08,259.09,259.1,259.11,259.12,259.13,259.14,259.15,259.16,259.17,259.18,259.19,259.2,9/16/2013,2.59,Suffolk,1258.001,"617,594",25.91,Mayor-council,ShawnR,PO #1630,Notsob,MA,MA-02108,usa
Cambridge,02138,City of Cambridge,1636 Cambridge Road,Cambridge,MA,02138,US,617-636 1636,County of Middlesex,Established in 1636,260.01,260.02,260.03,260.04,260.05,260.06,260.07,260.08,260.09,260.1,260.11,260.12,260.13,260.14,260.15,260.16,260.17,260.18,260.19,260.2,9/17/2013,2.6,Middlesex,1259.001,"105,162",26.01,Mayor-manager-council,JamesR,PO #1636,Egdirbmac,MA,MA-02138,usa
Somerville,02143,City of Somerville,1842 Somerville Road,Somerville,MA,02143,US,617-842 1842,County of Middlesex,Established in 1842,261.01,261.02,261.03,261.04,261.05,261.06,261.07,261.08,261.09,261.1,261.11,261.12,261.13,261.14,261.15,261.16,261.17,261.18,261.19,261.2,9/18/2013,2.61,Middlesex,1260.001,"75,754",26.11,Mayor-aldermen,TomH,PO #1842,Ellivremos,MA,MA-02143,usa
Malden,02148,City of Malden,1649 Malden Road,Malden,MA,02148,US,617-649 1649,County of Middlesex,Established in 1649,262.01,262.02,262.03,262.04,262.05,262.06,262.07,262.08,262.09,262.1,262.11,262.12,262.13,262.14,262.15,262.16,262.17,262.18,262.19,262.2,9/19/2013,2.62,Middlesex,1261.001,"59,450",26.21,Mayor-council,CoreyM,PO #1649,Nedlam,MA,MA-02148,usa
Everett,02149,City of Everett,1870 Everett Road,Everett,MA,02149,US,617-870 1870,County of Middlesex,Established in 1870,263.01,263.02,263.03,263.04,263.05,263.06,263.07,263.08,263.09,263.1,263.11,263.12,263.13,263.14,263.15,263.16,263.17,263.18,263.19,263.2,9/20/2013,2.63,Middlesex,1262.001,"41,667",26.31,Mayor-council-aldermen,SamS,PO #1870,Ttereve,MA,MA-02149,usa
Chelsea,02150,City of Chelsea,1739 Chelsea Road,Chelsea,MA,02150,US,617-739 1739,County of Suffolk,Established in 1739,264.01,264.02,264.03,264.04,264.05,264.06,264.07,264.08,264.09,264.1,264.11,264.12,264.13,264.14,264.15,264.16,264.17,264.18,264.19,264.2,9/21/2013,2.64,Suffolk,1263.001,"35,177",26.41,Council-manager,ShawnR,PO #1739,Aeslehc,MA,MA-02150,usa
Revere,02151,City of Revere,1846 Revere Road,Revere,MA,02151,US,617-846 1846,County of Suffolk,Established in 1846,265.01,265.02,265.03,265.04,265.05,265.06,265.07,265.08,265.09,265.1,265.11,265.12,265.13,265.14,265.15,265.16,265.17,265.18,265.19,265.2,9/22/2013,2.65,Suffolk,1264.001,"51,755",26.51,Mayor-council,JamesR,PO #1846,Erever,MA,MA-02151,usa
Winthrop,02152,City of Winthrop,1852 Winthrop Road,Winthrop,MA,02152,US,617-852 1852,County of Suffolk,Established in 1852,266.01,266.02,266.03,266.04,266.05,266.06,266.07,266.08,266.09,266.1,266.11,266.12,266.13,266.14,266.15,266.16,266.17,266.18,266.19,266.2,9/23/2013,2.66,Suffolk,1265.001,"17,497",26.61,Council-manager,TomH,PO #1852,Porhtniw,MA,MA-02152,usa
Medford,02153,City of Medford,1630 Medford Road,Medford,MA,02153,US,617-630 1630,County of Middlesex,Established in 1630,267.01,267.02,267.03,267.04,267.05,267.06,267.07,267.08,267.09,267.1,267.11,267.12,267.13,267.14,267.15,267.16,267.17,267.18,267.19,267.2,9/24/2013,2.67,Middlesex,1266.001,"56,173",26.71,Mayor-council,CoreyM,PO #1630,Drofdem,MA,MA-02153,usa
Quincy,02169,City of Quincy,1792 Quincy Road,Quincy,MA,02169,US,617-792 1792,County of Norfolk,Established in 1792,268.01,268.02,268.03,268.04,268.05,268.06,268.07,268.08,268.09,268.1,268.11,268.12,268.13,268.14,268.15,268.16,268.17,268.18,268.19,268.2,9/25/2013,2.68,Norfolk,1267.001,"92,271",26.81,Mayor-council,SamS,PO #1792,Ycniuq,MA,MA-02169,usa
Melrose,02176,City of Melrose,1850 Melrose Road,Melrose,MA,02176,US,617-850 1850,County of Middlesex,Established in 1850,269.01,269.02,269.03,269.04,269.05,269.06,269.07,269.08,269.09,269.1,269.11,269.12,269.13,269.14,269.15,269.16,269.17,269.18,269.19,269.2,9/26/2013,2.69,Middlesex,1268.001,"26,983",26.91,Mayor-aldermen,ShawnR,PO #1850,Esorlem,MA,MA-02176,usa
Stoneham,02180,Town of Stoneham,1725 Stoneham Road,Stoneham,MA,02180,US,617-725 1725,County of Middlesex,Established in 1725,270.01,270.02,270.03,270.04,270.05,270.06,270.07,270.08,270.09,270.1,270.11,270.12,270.13,270.14,270.15,270.16,270.17,270.18,270.19,270.2,9/27/2013,2.7,Middlesex,1269.001,"21,437",27.01,Open town meeting,JamesR,PO #1725,Mahenots,MA,MA-02180,usa
Braintree,02184,City of Braintree,1640 Braintree Road,Braintree,MA,02184,US,617-640 1640,County of Norfolk,Established in 1640,271.01,271.02,271.03,271.04,271.05,271.06,271.07,271.08,271.09,271.1,271.11,271.12,271.13,271.14,271.15,271.16,271.17,271.18,271.19,271.2,9/28/2013,2.71,Norfolk,1270.001,"35,744",27.11,Mayor-council,TomH,PO #1640,Eertniarb,MA,MA-02184,usa
Milton,02186,Town of Milton,1662 Milton Road,Milton,MA,02186,US,617-662 1662,County of Norfolk,Established in 1662,272.01,272.02,272.03,272.04,272.05,272.06,272.07,272.08,272.09,272.1,272.11,272.12,272.13,272.14,272.15,272.16,272.17,272.18,272.19,272.2,9/29/2013,2.72,Norfolk,1271.001,"27,003",27.21,Representative town meeting,CoreyM,PO #1662,Notlim,MA,MA-02186,usa
Weymouth,02188,City of Weymouth,1635 Weymouth Road,Weymouth,MA,02188,US,617-635 1635,County of Norfolk,Established in 1635,273.01,273.02,273.03,273.04,273.05,273.06,273.07,273.08,273.09,273.1,273.11,273.12,273.13,273.14,273.15,273.16,273.17,273.18,273.19,273.2,9/30/2013,2.73,Norfolk,1272.001,"53,743",27.31,Mayor-council,SamS,PO #1635,Htuomyew,MA,MA-02188,usa
Brockton,02301,City of Brockton,1821 Brockton Road,Brockton,MA,02301,US,617-821 1821,County of Plymouth,Established in 1821,274.01,274.02,274.03,274.04,274.05,274.06,274.07,274.08,274.09,274.1,274.11,274.12,274.13,274.14,274.15,274.16,274.17,274.18,274.19,274.2,10/1/2013,2.74,Plymouth,1273.001,"93,810",27.41,Mayor-council,ShawnR,PO #1821,Notkcorb,MA,MA-02301,usa
Avon,02322,Town of Avon,1888 Avon Road,Avon,MA,02322,US,617-888 1888,County of Norfolk,Established in 1888,275.01,275.02,275.03,275.04,275.05,275.06,275.07,275.08,275.09,275.1,275.11,275.12,275.13,275.14,275.15,275.16,275.17,275.18,275.19,275.2,10/2/2013,2.75,Norfolk,1274.001,"4,356",27.51,Open town meeting,JamesR,PO #1888,Nova,MA,MA-02322,usa
Bridgewater,02324,City of Bridgewater,1656 Bridgewater Road,Bridgewater,MA,02324,US,617-656 1656,County of Plymouth,Established in 1656,276.01,276.02,276.03,276.04,276.05,276.06,276.07,276.08,276.09,276.1,276.11,276.12,276.13,276.14,276.15,276.16,276.17,276.18,276.19,276.2,10/3/2013,2.76,Plymouth,1275.001,"26,563",27.61,Council-manager,TomH,PO #1656,Retawegdirb,MA,MA-02324,usa
Carver,02330,Town of Carver,1790 Carver Road,Carver,MA,02330,US,617-790 1790,County of Plymouth,Established in 1790,277.01,277.02,277.03,277.04,277.05,277.06,277.07,277.08,277.09,277.1,277.11,277.12,277.13,277.14,277.15,277.16,277.17,277.18,277.19,277.2,10/4/2013,2.77,Plymouth,1276.001,"11,509",27.71,Open town meeting,CoreyM,PO #1790,Revrac,MA,MA-02330,usa
Duxbury,02331,Town of Duxbury,1637 Duxbury Road,Duxbury,MA,02331,US,617-637 1637,County of Plymouth,Established in 1637,278.01,278.02,278.03,278.04,278.05,278.06,278.07,278.08,278.09,278.1,278.11,278.12,278.13,278.14,278.15,278.16,278.17,278.18,278.19,278.2,10/5/2013,2.78,Plymouth,1277.001,"15,059",27.81,Open town meeting,SamS,PO #1637,Yrubxud,MA,MA-02331,usa
East.Bridgewater,02333,Town of East Bridgewater,1823 East Bridgewater Road,East Bridgewater,MA,02333,US,617-823 1823,County of Plymouth,Established in 1823,279.01,279.02,279.03,279.04,279.05,279.06,279.07,279.08,279.09,279.1,279.11,279.12,279.13,279.14,279.15,279.16,279.17,279.18,279.19,279.2,10/6/2013,2.79,Plymouth,1278.001,"13,794",27.91,Open town meeting,ShawnR,PO #1823,Retawegdirb Tsae,MA,MA-02333,usa
Easton,02334,Town of Easton,1725 Easton Road,Easton,MA,02334,US,617-725 1725,County of Bristol,Established in 1725,280.01,280.02,280.03,280.04,280.05,280.06,280.07,280.08,280.09,280.1,280.11,280.12,280.13,280.14,280.15,280.16,280.17,280.18,280.19,280.2,10/7/2013,2.8,Bristol,1279.001,"23,112",28.01,Open town meeting,JamesR,PO #1725,Notsae,MA,MA-02334,usa
Halifax,02338,Town of Halifax,1734 Halifax Road,Halifax,MA,02338,US,617-734 1734,County of Plymouth,Established in 1734,281.01,281.02,281.03,281.04,281.05,281.06,281.07,281.08,281.09,281.1,281.11,281.12,281.13,281.14,281.15,281.16,281.17,281.18,281.19,281.2,10/8/2013,2.81,Plymouth,1280.001,"7,518",28.11,Open town meeting,TomH,PO #1734,Xafilah,MA,MA-02338,usa
Hanover,02339,Town of Hanover,1727 Hanover Road,Hanover,MA,02339,US,617-727 1727,County of Plymouth,Established in 1727,282.01,282.02,282.03,282.04,282.05,282.06,282.07,282.08,282.09,282.1,282.11,282.12,282.13,282.14,282.15,282.16,282.17,282.18,282.19,282.2,10/9/2013,2.82,Plymouth,1281.001,"13,879",28.21,Open town meeting,CoreyM,PO #1727,Revonah,MA,MA-02339,usa
Hanson,02341,Town of Hanson,1820 Hanson Road,Hanson,MA,02341,US,617-820 1820,County of Plymouth,Established in 1820,283.01,283.02,283.03,283.04,283.05,283.06,283.07,283.08,283.09,283.1,283.11,283.12,283.13,283.14,283.15,283.16,283.17,283.18,283.19,283.2,10/10/2013,2.83,Plymouth,1282.001,"10,209",28.31,Open town meeting,SamS,PO #1820,Nosnah,MA,MA-02341,usa
Holbrook,02343,Town of Holbrook,1872 Holbrook Road,Holbrook,MA,02343,US,617-872 1872,County of Norfolk,Established in 1872,284.01,284.02,284.03,284.04,284.05,284.06,284.07,284.08,284.09,284.1,284.11,284.12,284.13,284.14,284.15,284.16,284.17,284.18,284.19,284.2,10/11/2013,2.84,Norfolk,1283.001,"10,791",28.41,Representative town meeting,ShawnR,PO #1872,Koorbloh,MA,MA-02343,usa
Middleborough,02346,Town of Middleborough,1669 Middleborough Road,Middleborough,MA,02346,US,617-669 1669,County of Plymouth,Established in 1669,285.01,285.02,285.03,285.04,285.05,285.06,285.07,285.08,285.09,285.1,285.11,285.12,285.13,285.14,285.15,285.16,285.17,285.18,285.19,285.2,10/12/2013,2.85,Plymouth,1284.001,"23,116",28.51,Open town meeting,JamesR,PO #1669,Hguorobelddim,MA,MA-02346,usa
Lakeville,02347,Town of Lakeville,1853 Lakeville Road,Lakeville,MA,02347,US,617-853 1853,County of Plymouth,Established in 1853,286.01,286.02,286.03,286.04,286.05,286.06,286.07,286.08,286.09,286.1,286.11,286.12,286.13,286.14,286.15,286.16,286.17,286.18,286.19,286.2,10/13/2013,2.86,Plymouth,1285.001,"10,602",28.61,Open town meeting,TomH,PO #1853,Ellivekal,MA,MA-02347,usa
Abington,02351,Town of Abington,1712 Abington Road,Abington,MA,02351,US,617-712 1712,County of Plymouth,Established in 1712,287.01,287.02,287.03,287.04,287.05,287.06,287.07,287.08,287.09,287.1,287.11,287.12,287.13,287.14,287.15,287.16,287.17,287.18,287.19,287.2,10/14/2013,2.87,Plymouth,1286.001,"15,985",28.71,Open town meeting,CoreyM,PO #1712,Notgniba,MA,MA-02351,usa
Pembroke,02359,Town of Pembroke,1712 Pembroke Road,Pembroke,MA,02359,US,617-712 1712,County of Plymouth,Established in 1712,288.01,288.02,288.03,288.04,288.05,288.06,288.07,288.08,288.09,288.1,288.11,288.12,288.13,288.14,288.15,288.16,288.17,288.18,288.19,288.2,10/15/2013,2.88,Plymouth,1287.001,"17,837",28.81,Open town meeting,SamS,PO #1712,Ekorbmep,MA,MA-02359,usa
Plymouth,02360,Town of Plymouth,1620 Plymouth Road,Plymouth,MA,02360,US,617-620 1620,County of Plymouth,Established in 1620,289.01,289.02,289.03,289.04,289.05,289.06,289.07,289.08,289.09,289.1,289.11,289.12,289.13,289.14,289.15,289.16,289.17,289.18,289.19,289.2,10/16/2013,2.89,Plymouth,1288.001,"56,468",28.91,Representative town meeting,ShawnR,PO #1620,Htuomylp,MA,MA-02360,usa
Kingston,02364,Town of Kingston,1726 Kingston Road,Kingston,MA,02364,US,617-726 1726,County of Plymouth,Established in 1726,290.01,290.02,290.03,290.04,290.05,290.06,290.07,290.08,290.09,290.1,290.11,290.12,290.13,290.14,290.15,290.16,290.17,290.18,290.19,290.2,10/17/2013,2.9,Plymouth,1289.001,"12,629",29.01,Open town meeting,JamesR,PO #1726,Notsgnik,MA,MA-02364,usa
Plympton,02367,Town of Plympton,1707 Plympton Road,Plympton,MA,02367,US,617-707 1707,County of Plymouth,Established in 1707,291.01,291.02,291.03,291.04,291.05,291.06,291.07,291.08,291.09,291.1,291.11,291.12,291.13,291.14,291.15,291.16,291.17,291.18,291.19,291.2,10/18/2013,2.91,Plymouth,1290.001,"2,820",29.11,Open town meeting,TomH,PO #1707,Notpmylp,MA,MA-02367,usa
Randolph,02368,City of Randolph,1793 Randolph Road,Randolph,MA,02368,US,617-793 1793,County of Norfolk,Established in 1793,292.01,292.02,292.03,292.04,292.05,292.06,292.07,292.08,292.09,292.1,292.11,292.12,292.13,292.14,292.15,292.16,292.17,292.18,292.19,292.2,10/19/2013,2.92,Norfolk,1291.001,"32,112",29.21,Council-manager,CoreyM,PO #1793,Hplodnar,MA,MA-02368,usa
Rockland,02370,Town of Rockland,1874 Rockland Road,Rockland,MA,02370,US,617-874 1874,County of Plymouth,Established in 1874,293.01,293.02,293.03,293.04,293.05,293.06,293.07,293.08,293.09,293.1,293.11,293.12,293.13,293.14,293.15,293.16,293.17,293.18,293.19,293.2,10/20/2013,2.93,Plymouth,1292.001,"17,489",29.31,Open town meeting,SamS,PO #1874,Dnalkcor,MA,MA-02370,usa
West.Bridgewater,02379,Town of West Bridgewater,1822 West Bridgewater Road,West Bridgewater,MA,02379,US,617-822 1822,County of Plymouth,Established in 1822,294.01,294.02,294.03,294.04,294.05,294.06,294.07,294.08,294.09,294.1,294.11,294.12,294.13,294.14,294.15,294.16,294.17,294.18,294.19,294.2,10/21/2013,2.94,Plymouth,1293.001,"6,916",29.41,Open town meeting,ShawnR,PO #1822,Retawegdirb Tsew,MA,MA-02379,usa
Whitman,02382,Town of Whitman,1875 Whitman Road,Whitman,MA,02382,US,617-875 1875,County of Plymouth,Established in 1875,295.01,295.02,295.03,295.04,295.05,295.06,295.07,295.08,295.09,295.1,295.11,295.12,295.13,295.14,295.15,295.16,295.17,295.18,295.19,295.2,10/22/2013,2.95,Plymouth,1294.001,"14,489",29.51,Open town meeting,JamesR,PO #1875,Namtihw,MA,MA-02382,usa
Lexington,02420,Town of Lexington,1713 Lexington Road,Lexington,MA,02420,US,617-713 1713,County of Middlesex,Established in 1713,296.01,296.02,296.03,296.04,296.05,296.06,296.07,296.08,296.09,296.1,296.11,296.12,296.13,296.14,296.15,296.16,296.17,296.18,296.19,296.2,10/23/2013,2.96,Middlesex,1295.001,"31,394",29.61,Representative town meeting,TomH,PO #1713,Notgnixel,MA,MA-02420,usa
Brookline,02445,Town of Brookline,1705 Brookline Road,Brookline,MA,02445,US,617-705 1705,County of Norfolk,Established in 1705,297.01,297.02,297.03,297.04,297.05,297.06,297.07,297.08,297.09,297.1,297.11,297.12,297.13,297.14,297.15,297.16,297.17,297.18,297.19,297.2,10/24/2013,2.97,Norfolk,1296.001,"58,732",29.71,Representative town meeting,CoreyM,PO #1705,Enilkoorb,MA,MA-02445,usa
Waltham,02451,City of Waltham,1738 Waltham Road,Waltham,MA,02451,US,617-738 1738,County of Middlesex,Established in 1738,298.01,298.02,298.03,298.04,298.05,298.06,298.07,298.08,298.09,298.1,298.11,298.12,298.13,298.14,298.15,298.16,298.17,298.18,298.19,298.2,10/25/2013,2.98,Middlesex,1297.001,"60,632",29.81,Mayor-council,SamS,PO #1738,Mahtlaw,MA,MA-02451,usa
Newton,02458,City of Newton,1688 Newton Road,Newton,MA,02458,US,617-688 1688,County of Middlesex,Established in 1688,299.01,299.02,299.03,299.04,299.05,299.06,299.07,299.08,299.09,299.1,299.11,299.12,299.13,299.14,299.15,299.16,299.17,299.18,299.19,299.2,10/26/2013,2.99,Middlesex,1298.001,"85,146",29.91,Mayor-aldermen,ShawnR,PO #1688,Notwen,MA,MA-02458,usa
Watertown,02471,City of Watertown,1630 Watertown Road,Watertown,MA,02471,US,617-630 1630,County of Middlesex,Established in 1630,300.01,300.02,300.03,300.04,300.05,300.06,300.07,300.08,300.09,300.1,300.11,300.12,300.13,300.14,300.15,300.16,300.17,300.18,300.19,300.2,10/27/2013,3,Middlesex,1299.001,"31,915",30.01,Council-manager,JamesR,PO #1630,Nwotretaw,MA,MA-02471,usa
Arlington,02474,Town of Arlington,1807 Arlington Road,Arlington,MA,02474,US,617-807 1807,County of Middlesex,Established in 1807,301.01,301.02,301.03,301.04,301.05,301.06,301.07,301.08,301.09,301.1,301.11,301.12,301.13,301.14,301.15,301.16,301.17,301.18,301.19,301.2,10/28/2013,3.01,Middlesex,1300.001,"42,844",30.11,Representative town meeting,TomH,PO #1807,Notgnilra,MA,MA-02474,usa
Belmont,02478,Town of Belmont,1859 Belmont Road,Belmont,MA,02478,US,617-859 1859,County of Middlesex,Established in 1859,302.01,302.02,302.03,302.04,302.05,302.06,302.07,302.08,302.09,302.1,302.11,302.12,302.13,302.14,302.15,302.16,302.17,302.18,302.19,302.2,10/29/2013,3.02,Middlesex,1301.001,"24,729",30.21,Representative town meeting,CoreyM,PO #1859,Tnomleb,MA,MA-02478,usa
Wellesley,02482,Town of Wellesley,1881 Wellesley Road,Wellesley,MA,02482,US,617-881 1881,County of Norfolk,Established in 1881,303.01,303.02,303.03,303.04,303.05,303.06,303.07,303.08,303.09,303.1,303.11,303.12,303.13,303.14,303.15,303.16,303.17,303.18,303.19,303.2,10/30/2013,3.03,Norfolk,1302.001,"27,982",30.31,Representative town meeting,SamS,PO #1881,Yelsellew,MA,MA-02482,usa
Needham,02492,Town of Needham,1711 Needham Road,Needham,MA,02492,US,617-711 1711,County of Norfolk,Established in 1711,304.01,304.02,304.03,304.04,304.05,304.06,304.07,304.08,304.09,304.1,304.11,304.12,304.13,304.14,304.15,304.16,304.17,304.18,304.19,304.2,10/31/2013,3.04,Norfolk,1303.001,"28,886",30.41,Representative town meeting,ShawnR,PO #1711,Mahdeen,MA,MA-02492,usa
Weston,02493,Town of Weston,1713 Weston Road,Weston,MA,02493,US,617-713 1713,County of Middlesex,Established in 1713,305.01,305.02,305.03,305.04,305.05,305.06,305.07,305.08,305.09,305.1,305.11,305.12,305.13,305.14,305.15,305.16,305.17,305.18,305.19,305.2,11/1/2013,3.05,Middlesex,1304.001,"11,261",30.51,Open town meeting,JamesR,PO #1713,Notsew,MA,MA-02493,usa
Bourne,02532,Town of Bourne,1884 Bourne Road,Bourne,MA,02532,US,617-884 1884,County of Barnstable,Established in 1884,306.01,306.02,306.03,306.04,306.05,306.06,306.07,306.08,306.09,306.1,306.11,306.12,306.13,306.14,306.15,306.16,306.17,306.18,306.19,306.2,11/2/2013,3.06,Barnstable,1305.001,"19,754",30.61,Open town meeting,TomH,PO #1884,Enruob,MA,MA-02532,usa
Chilmark,02535,Town of Chilmark,1714 Chilmark Road,Chilmark,MA,02535,US,617-714 1714,County of Dukes,Established in 1714,307.01,307.02,307.03,307.04,307.05,307.06,307.07,307.08,307.09,307.1,307.11,307.12,307.13,307.14,307.15,307.16,307.17,307.18,307.19,307.2,11/3/2013,3.07,Dukes,1306.001,866,30.71,Open town meeting,CoreyM,PO #1714,Kramlihc,MA,MA-02535,usa
Aquinnah,02535x,Town of Aquinnah,1870 Aquinnah Road,Aquinnah,MA,02535x,US,617-870 1870,County of Dukes,Established in 1870,308.01,308.02,308.03,308.04,308.05,308.06,308.07,308.08,308.09,308.1,308.11,308.12,308.13,308.14,308.15,308.16,308.17,308.18,308.19,308.2,11/4/2013,3.08,Dukes,1307.001,311,30.81,Open town meeting,SamS,PO #1870,Hanniuqa,MA,MA-02535x,usa
Edgartown,02539,Town of Edgartown,1671 Edgartown Road,Edgartown,MA,02539,US,617-671 1671,County of Dukes,Established in 1671,309.01,309.02,309.03,309.04,309.05,309.06,309.07,309.08,309.09,309.1,309.11,309.12,309.13,309.14,309.15,309.16,309.17,309.18,309.19,309.2,11/5/2013,3.09,Dukes,1308.001,"4,067",30.91,Open town meeting,ShawnR,PO #1671,Nwotragde,MA,MA-02539,usa
Falmouth,02540,Town of Falmouth,1686 Falmouth Road,Falmouth,MA,02540,US,617-686 1686,County of Barnstable,Established in 1686,310.01,310.02,310.03,310.04,310.05,310.06,310.07,310.08,310.09,310.1,310.11,310.12,310.13,310.14,310.15,310.16,310.17,310.18,310.19,310.2,11/6/2013,3.1,Barnstable,1309.001,"31,531",31.01,Representative town meeting,JamesR,PO #1686,Htuomlaf,MA,MA-02540,usa
Nantucket,02554,Town of Nantucket,1671 Nantucket Road,Nantucket,MA,02554,US,617-671 1671,County of Nantucket,Established in 1671,311.01,311.02,311.03,311.04,311.05,311.06,311.07,311.08,311.09,311.1,311.11,311.12,311.13,311.14,311.15,311.16,311.17,311.18,311.19,311.2,11/7/2013,3.11,Nantucket,1310.001,"10,172",31.11,Open town meeting,TomH,PO #1671,Tekcutnan,MA,MA-02554,usa
Oak Bluffs,02557,Town of Oak Bluffs,1880 Oak Bluffs Road,Oak Bluffs,MA,02557,US,617-880 1880,County of Dukes,Established in 1880,312.01,312.02,312.03,312.04,312.05,312.06,312.07,312.08,312.09,312.1,312.11,312.12,312.13,312.14,312.15,312.16,312.17,312.18,312.19,312.2,11/8/2013,3.12,Dukes,1311.001,"4,527",31.21,Open town meeting,CoreyM,PO #1880,Sffulb Kao,MA,MA-02557,usa
Sandwich,02563,Town of Sandwich,1639 Sandwich Road,Sandwich,MA,02563,US,617-639 1639,County of Barnstable,Established in 1639,313.01,313.02,313.03,313.04,313.05,313.06,313.07,313.08,313.09,313.1,313.11,313.12,313.13,313.14,313.15,313.16,313.17,313.18,313.19,313.2,11/9/2013,3.13,Barnstable,1312.001,"20,675",31.31,Open town meeting,SamS,PO #1639,Hciwdnas,MA,MA-02563,usa
Tisbury,02568,Town of Tisbury,1671 Tisbury Road,Tisbury,MA,02568,US,617-671 1671,County of Dukes,Established in 1671,314.01,314.02,314.03,314.04,314.05,314.06,314.07,314.08,314.09,314.1,314.11,314.12,314.13,314.14,314.15,314.16,314.17,314.18,314.19,314.2,11/10/2013,3.14,Dukes,1313.001,"3,949",31.41,Open town meeting,ShawnR,PO #1671,Yrubsit,MA,MA-02568,usa
Wareham,02571,Town of Wareham,1739 Wareham Road,Wareham,MA,02571,US,617-739 1739,County of Plymouth,Established in 1739,315.01,315.02,315.03,315.04,315.05,315.06,315.07,315.08,315.09,315.1,315.11,315.12,315.13,315.14,315.15,315.16,315.17,315.18,315.19,315.2,11/11/2013,3.15,Plymouth,1314.001,"21,822",31.51,Open town meeting,JamesR,PO #1739,Maheraw,MA,MA-02571,usa
West.Tisbury,02575,Town of West Tisbury,1892 West Tisbury Road,West Tisbury,MA,02575,US,617-892 1892,County of Dukes,Established in 1892,316.01,316.02,316.03,316.04,316.05,316.06,316.07,316.08,316.09,316.1,316.11,316.12,316.13,316.14,316.15,316.16,316.17,316.18,316.19,316.2,11/12/2013,3.16,Dukes,1315.001,"2,740",31.61,Open town meeting,TomH,PO #1892,Yrubsit Tsew,MA,MA-02575,usa
Barnstable,02630,City of Barnstable,1638 Barnstable Road,Barnstable,MA,02630,US,617-638 1638,County of Barnstable,Established in 1638,317.01,317.02,317.03,317.04,317.05,317.06,317.07,317.08,317.09,317.1,317.11,317.12,317.13,317.14,317.15,317.16,317.17,317.18,317.19,317.2,11/13/2013,3.17,Barnstable,1316.001,"45,193",31.71,Council-manager,CoreyM,PO #1638,Elbatsnrab,MA,MA-02630,usa
Brewster,02631,Town of Brewster,1803 Brewster Road,Brewster,MA,02631,US,617-803 1803,County of Barnstable,Established in 1803,318.01,318.02,318.03,318.04,318.05,318.06,318.07,318.08,318.09,318.1,318.11,318.12,318.13,318.14,318.15,318.16,318.17,318.18,318.19,318.2,11/14/2013,3.18,Barnstable,1317.001,"9,820",31.81,Open town meeting,SamS,PO #1803,Retswerb,MA,MA-02631,usa
Chatham,02633,Town of Chatham,1712 Chatham Road,Chatham,MA,02633,US,617-712 1712,County of Barnstable,Established in 1712,319.01,319.02,319.03,319.04,319.05,319.06,319.07,319.08,319.09,319.1,319.11,319.12,319.13,319.14,319.15,319.16,319.17,319.18,319.19,319.2,11/15/2013,3.19,Barnstable,1318.001,"6,125",31.91,Open town meeting,ShawnR,PO #1712,Mahtahc,MA,MA-02633,usa
Dennis,02638,Town of Dennis,1793 Dennis Road,Dennis,MA,02638,US,617-793 1793,County of Barnstable,Established in 1793,320.01,320.02,320.03,320.04,320.05,320.06,320.07,320.08,320.09,320.1,320.11,320.12,320.13,320.14,320.15,320.16,320.17,320.18,320.19,320.2,11/16/2013,3.2,Barnstable,1319.001,"14,207",32.01,Open town meeting,JamesR,PO #1793,Sinned,MA,MA-02638,usa
Eastham,02642,Town of Eastham,1646 Eastham Road,Eastham,MA,02642,US,617-646 1646,County of Barnstable,Established in 1646,321.01,321.02,321.03,321.04,321.05,321.06,321.07,321.08,321.09,321.1,321.11,321.12,321.13,321.14,321.15,321.16,321.17,321.18,321.19,321.2,11/17/2013,3.21,Barnstable,1320.001,"4,956",32.11,Open town meeting,TomH,PO #1646,Mahtsae,MA,MA-02642,usa
Harwich,02645,Town of Harwich,1694 Harwich Road,Harwich,MA,02645,US,617-694 1694,County of Barnstable,Established in 1694,322.01,322.02,322.03,322.04,322.05,322.06,322.07,322.08,322.09,322.1,322.11,322.12,322.13,322.14,322.15,322.16,322.17,322.18,322.19,322.2,11/18/2013,3.22,Barnstable,1321.001,"12,243",32.21,Open town meeting,CoreyM,PO #1694,Hciwrah,MA,MA-02645,usa
Mashpee,02649,Town of Mashpee,1870 Mashpee Road,Mashpee,MA,02649,US,617-870 1870,County of Barnstable,Established in 1870,323.01,323.02,323.03,323.04,323.05,323.06,323.07,323.08,323.09,323.1,323.11,323.12,323.13,323.14,323.15,323.16,323.17,323.18,323.19,323.2,11/19/2013,3.23,Barnstable,1322.001,"14,006",32.31,Open town meeting,SamS,PO #1870,Eephsam,MA,MA-02649,usa
Orleans,02653,Town of Orleans,1797 Orleans Road,Orleans,MA,02653,US,617-797 1797,County of Barnstable,Established in 1797,324.01,324.02,324.03,324.04,324.05,324.06,324.07,324.08,324.09,324.1,324.11,324.12,324.13,324.14,324.15,324.16,324.17,324.18,324.19,324.2,11/20/2013,3.24,Barnstable,1323.001,"5,890",32.41,Open town meeting,ShawnR,PO #1797,Snaelro,MA,MA-02653,usa
Provincetown,02657,Town of Provincetown,1727 Provincetown Road,Provincetown,MA,02657,US,617-727 1727,County of Barnstable,Established in 1727,325.01,325.02,325.03,325.04,325.05,325.06,325.07,325.08,325.09,325.1,325.11,325.12,325.13,325.14,325.15,325.16,325.17,325.18,325.19,325.2,11/21/2013,3.25,Barnstable,1324.001,"2,942",32.51,Open town meeting,JamesR,PO #1727,Nwotecnivorp,MA,MA-02657,usa
Yarmouth,02664,Town of Yarmouth,1639 Yarmouth Road,Yarmouth,MA,02664,US,617-639 1639,County of Barnstable,Established in 1639,326.01,326.02,326.03,326.04,326.05,326.06,326.07,326.08,326.09,326.1,326.11,326.12,326.13,326.14,326.15,326.16,326.17,326.18,326.19,326.2,11/22/2013,3.26,Barnstable,1325.001,"23,793",32.61,Open town meeting,TomH,PO #1639,Htuomray,MA,MA-02664,usa
Truro,02666,Town of Truro,1709 Truro Road,Truro,MA,02666,US,617-709 1709,County of Barnstable,Established in 1709,327.01,327.02,327.03,327.04,327.05,327.06,327.07,327.08,327.09,327.1,327.11,327.12,327.13,327.14,327.15,327.16,327.17,327.18,327.19,327.2,11/23/2013,3.27,Barnstable,1326.001,"2,003",32.71,Open town meeting,CoreyM,PO #1709,Orurt,MA,MA-02666,usa
Wellfleet,02667,Town of Wellfleet,1775 Wellfleet Road,Wellfleet,MA,02667,US,617-775 1775,County of Barnstable,Established in 1775,328.01,328.02,328.03,328.04,328.05,328.06,328.07,328.08,328.09,328.1,328.11,328.12,328.13,328.14,328.15,328.16,328.17,328.18,328.19,328.2,11/24/2013,3.28,Barnstable,1327.001,"2,750",32.81,Open town meeting,SamS,PO #1775,Teelfllew,MA,MA-02667,usa
Freetown,02702,Town of Freetown,1683 Freetown Road,Freetown,MA,02702,US,617-683 1683,County of Bristol,Established in 1683,329.01,329.02,329.03,329.04,329.05,329.06,329.07,329.08,329.09,329.1,329.11,329.12,329.13,329.14,329.15,329.16,329.17,329.18,329.19,329.2,11/25/2013,3.29,Bristol,1328.001,"8,870",32.91,Open town meeting,ShawnR,PO #1683,Nwoteerf,MA,MA-02702,usa
Attleboro,02703,City of Attleboro,1694 Attleboro Road,Attleboro,MA,02703,US,617-694 1694,County of Bristol,Established in 1694,330.01,330.02,330.03,330.04,330.05,330.06,330.07,330.08,330.09,330.1,330.11,330.12,330.13,330.14,330.15,330.16,330.17,330.18,330.19,330.2,11/26/2013,3.3,Bristol,1329.001,"43,593",33.01,Mayor-council,JamesR,PO #1694,Orobeltta,MA,MA-02703,usa
Gosnold,02713,Town of Gosnold,1864 Gosnold Road,Gosnold,MA,02713,US,617-864 1864,County of Dukes,Established in 1864,331.01,331.02,331.03,331.04,331.05,331.06,331.07,331.08,331.09,331.1,331.11,331.12,331.13,331.14,331.15,331.16,331.17,331.18,331.19,331.2,11/27/2013,3.31,Dukes,1330.001,75,33.11,Open town meeting,TomH,PO #1864,Dlonsog,MA,MA-02713,usa
Dartmouth,02714,Town of Dartmouth,1664 Dartmouth Road,Dartmouth,MA,02714,US,617-664 1664,County of Bristol,Established in 1664,332.01,332.02,332.03,332.04,332.05,332.06,332.07,332.08,332.09,332.1,332.11,332.12,332.13,332.14,332.15,332.16,332.17,332.18,332.19,332.2,11/28/2013,3.32,Bristol,1331.001,"34,032",33.21,Representative town meeting,CoreyM,PO #1664,Htuomtrad,MA,MA-02714,usa
Dighton,02715,Town of Dighton,1712 Dighton Road,Dighton,MA,02715,US,617-712 1712,County of Bristol,Established in 1712,333.01,333.02,333.03,333.04,333.05,333.06,333.07,333.08,333.09,333.1,333.11,333.12,333.13,333.14,333.15,333.16,333.17,333.18,333.19,333.2,11/29/2013,3.33,Bristol,1332.001,"7,086",33.31,Open town meeting,SamS,PO #1712,Nothgid,MA,MA-02715,usa
Fairhaven,02719,Town of Fairhaven,1812 Fairhaven Road,Fairhaven,MA,02719,US,617-812 1812,County of Bristol,Established in 1812,334.01,334.02,334.03,334.04,334.05,334.06,334.07,334.08,334.09,334.1,334.11,334.12,334.13,334.14,334.15,334.16,334.17,334.18,334.19,334.2,11/30/2013,3.34,Bristol,1333.001,"15,873",33.41,Representative town meeting,ShawnR,PO #1812,Nevahriaf,MA,MA-02719,usa
Fall River,02720,City of Fall River,1803 Fall River Road,Fall River,MA,02720,US,617-803 1803,County of Bristol,Established in 1803,335.01,335.02,335.03,335.04,335.05,335.06,335.07,335.08,335.09,335.1,335.11,335.12,335.13,335.14,335.15,335.16,335.17,335.18,335.19,335.2,12/1/2013,3.35,Bristol,1334.001,"88,857",33.51,Mayor-council,JamesR,PO #1803,Revir Llaf,MA,MA-02720,usa
Somerset,02725,Town of Somerset,1790 Somerset Road,Somerset,MA,02725,US,617-790 1790,County of Bristol,Established in 1790,336.01,336.02,336.03,336.04,336.05,336.06,336.07,336.08,336.09,336.1,336.11,336.12,336.13,336.14,336.15,336.16,336.17,336.18,336.19,336.2,12/2/2013,3.36,Bristol,1335.001,"18,165",33.61,Open town meeting,TomH,PO #1790,Tesremos,MA,MA-02725,usa
Marion,02738,Town of Marion,1852 Marion Road,Marion,MA,02738,US,617-852 1852,County of Plymouth,Established in 1852,337.01,337.02,337.03,337.04,337.05,337.06,337.07,337.08,337.09,337.1,337.11,337.12,337.13,337.14,337.15,337.16,337.17,337.18,337.19,337.2,12/3/2013,3.37,Plymouth,1336.001,"4,907",33.71,Open town meeting,CoreyM,PO #1852,Noiram,MA,MA-02738,usa
Mattapoisett,02739,Town of Mattapoisett,1857 Mattapoisett Road,Mattapoisett,MA,02739,US,617-857 1857,County of Plymouth,Established in 1857,338.01,338.02,338.03,338.04,338.05,338.06,338.07,338.08,338.09,338.1,338.11,338.12,338.13,338.14,338.15,338.16,338.17,338.18,338.19,338.2,12/4/2013,3.38,Plymouth,1337.001,"6,045",33.81,Open town meeting,SamS,PO #1857,Ttesiopattam,MA,MA-02739,usa
New Bedford,02740,City of New Bedford,1787 New Bedford Road,New Bedford,MA,02740,US,617-787 1787,County of Bristol,Established in 1787,339.01,339.02,339.03,339.04,339.05,339.06,339.07,339.08,339.09,339.1,339.11,339.12,339.13,339.14,339.15,339.16,339.17,339.18,339.19,339.2,12/5/2013,3.39,Bristol,1338.001,"95,072",33.91,Mayor-council,ShawnR,PO #1787,Drofdeb Wen,MA,MA-02740,usa
Acushnet,02743,Town of Acushnet,1860 Acushnet Road,Acushnet,MA,02743,US,617-860 1860,County of Bristol,Established in 1860,340.01,340.02,340.03,340.04,340.05,340.06,340.07,340.08,340.09,340.1,340.11,340.12,340.13,340.14,340.15,340.16,340.17,340.18,340.19,340.2,12/6/2013,3.4,Bristol,1339.001,"10,303",34.01,Open town meeting,JamesR,PO #1860,Tenhsuca,MA,MA-02743,usa
North.Attleborough,02760,Town of North Attleborough,1887 North Attleborough Road,North Attleborough,MA,02760,US,617-887 1887,County of Bristol,Established in 1887,341.01,341.02,341.03,341.04,341.05,341.06,341.07,341.08,341.09,341.1,341.11,341.12,341.13,341.14,341.15,341.16,341.17,341.18,341.19,341.2,12/7/2013,3.41,Bristol,1340.001,"28,712",34.11,Representative town meeting,TomH,PO #1887,Hguorobeltta Htron,MA,MA-02760,usa
Plainville,02762,Town of Plainville,1905 Plainville Road,Plainville,MA,02762,US,617-905 1905,County of Norfolk,Established in 1905,342.01,342.02,342.03,342.04,342.05,342.06,342.07,342.08,342.09,342.1,342.11,342.12,342.13,342.14,342.15,342.16,342.17,342.18,342.19,342.2,12/8/2013,3.42,Norfolk,1341.001,"8,264",34.21,Open town meeting,CoreyM,PO #1905,Ellivnialp,MA,MA-02762,usa
Norton,02766,Town of Norton,1711 Norton Road,Norton,MA,02766,US,617-711 1711,County of Bristol,Established in 1711,343.01,343.02,343.03,343.04,343.05,343.06,343.07,343.08,343.09,343.1,343.11,343.12,343.13,343.14,343.15,343.16,343.17,343.18,343.19,343.2,12/9/2013,3.43,Bristol,1342.001,"19,031",34.31,Open town meeting,SamS,PO #1711,Notron,MA,MA-02766,usa
Raynham,02767,Town of Raynham,1731 Raynham Road,Raynham,MA,02767,US,617-731 1731,County of Bristol,Established in 1731,344.01,344.02,344.03,344.04,344.05,344.06,344.07,344.08,344.09,344.1,344.11,344.12,344.13,344.14,344.15,344.16,344.17,344.18,344.19,344.2,12/10/2013,3.44,Bristol,1343.001,"13,383",34.41,Open town meeting,ShawnR,PO #1731,Mahnyar,MA,MA-02767,usa
Rehoboth,02769,Town of Rehoboth,1645 Rehoboth Road,Rehoboth,MA,02769,US,617-645 1645,County of Bristol,Established in 1645,345.01,345.02,345.03,345.04,345.05,345.06,345.07,345.08,345.09,345.1,345.11,345.12,345.13,345.14,345.15,345.16,345.17,345.18,345.19,345.2,12/11/2013,3.45,Bristol,1344.001,"11,608",34.51,Open town meeting,JamesR,PO #1645,Htoboher,MA,MA-02769,usa
Rochester,02770,Town of Rochester,1686 Rochester Road,Rochester,MA,02770,US,617-686 1686,County of Plymouth,Established in 1686,346.01,346.02,346.03,346.04,346.05,346.06,346.07,346.08,346.09,346.1,346.11,346.12,346.13,346.14,346.15,346.16,346.17,346.18,346.19,346.2,12/12/2013,3.46,Plymouth,1345.001,"5,232",34.61,Open town meeting,TomH,PO #1686,Retsehcor,MA,MA-02770,usa
Seekonk,02771,Town of Seekonk,1812 Seekonk Road,Seekonk,MA,02771,US,617-812 1812,County of Bristol,Established in 1812,347.01,347.02,347.03,347.04,347.05,347.06,347.07,347.08,347.09,347.1,347.11,347.12,347.13,347.14,347.15,347.16,347.17,347.18,347.19,347.2,12/13/2013,3.47,Bristol,1346.001,"13,722",34.71,Open town meeting,CoreyM,PO #1812,Knokees,MA,MA-02771,usa
Swansea,02777,Town of Swansea,1667 Swansea Road,Swansea,MA,02777,US,617-667 1667,County of Bristol,Established in 1667,348.01,348.02,348.03,348.04,348.05,348.06,348.07,348.08,348.09,348.1,348.11,348.12,348.13,348.14,348.15,348.16,348.17,348.18,348.19,348.2,12/14/2013,3.48,Bristol,1347.001,"15,865",34.81,Open town meeting,SamS,PO #1667,Aesnaws,MA,MA-02777,usa
Berkley,02779,Town of Berkley,1735 Berkley Road,Berkley,MA,02779,US,617-735 1735,County of Bristol,Established in 1735,349.01,349.02,349.03,349.04,349.05,349.06,349.07,349.08,349.09,349.1,349.11,349.12,349.13,349.14,349.15,349.16,349.17,349.18,349.19,349.2,12/15/2013,3.49,Bristol,1348.001,"6,411",34.91,Open town meeting,ShawnR,PO #1735,Yelkreb,MA,MA-02779,usa
Taunton,02780,City of Taunton,1639 Taunton Road,Taunton,MA,02780,US,617-639 1639,County of Bristol,Established in 1639,350.01,350.02,350.03,350.04,350.05,350.06,350.07,350.08,350.09,350.1,350.11,350.12,350.13,350.14,350.15,350.16,350.17,350.18,350.19,350.2,12/16/2013,3.5,Bristol,1349.001,"55,874",35.01,Mayor-council,JamesR,PO #1639,Notnuat,MA,MA-02780,usa
Westport,02790,Town of Westport,1787 Westport Road,Westport,MA,02790,US,617-787 1787,County of Bristol,Established in 1787,351.01,351.02,351.03,351.04,351.05,351.06,351.07,351.08,351.09,351.1,351.11,351.12,351.13,351.14,351.15,351.16,351.17,351.18,351.19,351.2,12/17/2013,3.51,Bristol,1350.001,"15,532",35.11,Open town meeting,TomH,PO #1787,Troptsew,MA,MA-02790,usa
